{"type":"FeatureCollection","features":[{"type":"Feature","properties":{"id":"korea","source":"Natural Earth 1:10m (via prototype), NK+SK unioned"},"geometry":{"type":"MultiPolygon","coordinates":[[[[128.3676,38.6265],[128.3096,38.6027],[128.2853,38.586],[128.2776,38.5717],[128.2807,38.555],[128.2883,38.5216],[128.2853,38.4857],[128.27,38.4535],[128.2517,38.4272],[128.2273,38.4009],[128.177,38.3578],[128.1115,38.3231],[128.0429,38.3051],[127.9759,38.3015],[127.8707,38.3051],[127.8021,38.2956],[127.7914,38.298],[127.7777,38.3063],[127.7671,38.3219],[127.7549,38.3267],[127.5643,38.3135],[127.5034,38.298],[127.4744,38.2968],[127.3814,38.3183],[127.2549,38.3099],[127.226,38.3135],[127.162,38.3087],[127.0934,38.286],[127.0294,38.256],[126.9745,38.2189],[126.9669,38.2141],[126.9562,38.2021],[126.9425,38.1745],[126.9242,38.1361],[126.9059,38.1205],[126.8663,38.0977],[126.8526,38.0821],[126.7657,37.9787],[126.7261,37.9558],[126.7017,37.9474],[126.6804,37.945],[126.6697,37.939],[126.6651,37.9149],[126.6727,37.8282],[126.6697,37.8282],[126.6575,37.8149],[126.6544,37.7993],[126.6468,37.7981],[126.6255,37.7884],[126.5965,37.7739],[126.5782,37.7776],[126.438,37.8487],[126.4319,37.8535],[126.406,37.8872],[126.403,37.8933],[126.3816,37.8896],[126.3633,37.8848],[126.2841,37.8523],[126.2627,37.8451],[126.2414,37.8439],[126.2048,37.8451],[126.1835,37.8402],[126.1622,37.8306],[126.1545,37.8234],[126.1515,37.8198],[126.1545,37.8149],[126.1576,37.7993],[126.1652,37.78],[126.1682,37.7691],[126.1682,37.7558],[126.1652,37.7402],[126.1622,37.7341],[126.1149,37.7402],[126.0997,37.7812],[126.089,37.8017],[126.0753,37.7993],[126.0677,37.8029],[126.0616,37.8258],[126.0616,37.8704],[126.028,37.8535],[126.0174,37.8559],[126.0097,37.874],[126.0036,37.886],[125.9884,37.8993],[125.9747,37.9101],[125.964,37.9125],[125.9488,37.9029],[125.9533,37.8896],[125.9671,37.8788],[125.9777,37.874],[125.9777,37.8643],[125.9884,37.8366],[125.9884,37.8234],[125.9823,37.8306],[125.9701,37.8354],[125.9594,37.8402],[125.9488,37.8439],[125.9381,37.8451],[125.932,37.8439],[125.9244,37.8451],[125.9168,37.8511],[125.8985,37.8656],[125.8482,37.927],[125.8451,37.9366],[125.8375,37.9438],[125.8162,37.9486],[125.8086,37.9522],[125.8055,37.9583],[125.8055,37.9703],[125.8086,37.9895],[125.8025,37.9943],[125.7872,37.9943],[125.7765,37.9979],[125.7583,38.0064],[125.7506,38.0076],[125.708,38.01],[125.6897,38.0124],[125.65,38.028],[125.6257,38.0328],[125.5997,38.0328],[125.583,38.0268],[125.583,38.01],[125.5997,37.9919],[125.6257,37.9787],[125.6439,37.9739],[125.679,37.9787],[125.6897,37.9727],[125.6836,37.9534],[125.6942,37.957],[125.7049,37.9583],[125.7125,37.9583],[125.7232,37.9534],[125.7125,37.9402],[125.7003,37.927],[125.7232,37.927],[125.7293,37.9282],[125.7369,37.933],[125.7445,37.927],[125.7339,37.9161],[125.7186,37.9077],[125.7049,37.9029],[125.6897,37.8993],[125.6729,37.8993],[125.6607,37.9065],[125.65,37.9161],[125.6363,37.927],[125.6333,37.9029],[125.6394,37.8788],[125.6439,37.8571],[125.6257,37.8366],[125.6439,37.8258],[125.647,37.8234],[125.6439,37.8137],[125.6363,37.8101],[125.618,37.8101],[125.615,37.8065],[125.615,37.7993],[125.6211,37.7896],[125.6257,37.7739],[125.6257,37.7655],[125.618,37.7631],[125.6074,37.7631],[125.5967,37.7643],[125.5891,37.7679],[125.5784,37.7739],[125.583,37.7776],[125.586,37.7776],[125.586,37.78],[125.586,37.7824],[125.5754,37.7884],[125.5647,37.7884],[125.5571,37.7824],[125.554,37.7715],[125.5464,37.7715],[125.5312,37.7727],[125.5251,37.7812],[125.5312,37.7969],[125.5068,37.78],[125.4961,37.7546],[125.4778,37.7317],[125.4412,37.7208],[125.4092,37.7184],[125.3879,37.7172],[125.3803,37.71],[125.3772,37.6931],[125.3666,37.6798],[125.3513,37.6762],[125.3376,37.687],[125.3513,37.739],[125.3666,37.7607],[125.3955,37.7546],[125.4489,37.7739],[125.4351,37.7812],[125.3986,37.7764],[125.3803,37.7824],[125.3955,37.7969],[125.4169,37.8101],[125.4382,37.8198],[125.4595,37.8234],[125.5098,37.8137],[125.5281,37.8186],[125.5312,37.8439],[125.5144,37.839],[125.5037,37.8402],[125.4915,37.8475],[125.4809,37.8571],[125.5144,37.8848],[125.5144,37.8945],[125.4885,37.8993],[125.4672,37.9041],[125.4595,37.9149],[125.4489,37.9209],[125.4275,37.9125],[125.4306,37.9101],[125.4351,37.9029],[125.4351,37.8993],[125.4092,37.8993],[125.3986,37.8981],[125.3879,37.8933],[125.4062,37.886],[125.4306,37.874],[125.4489,37.8607],[125.4489,37.8439],[125.4306,37.8571],[125.4016,37.8656],[125.3772,37.8692],[125.3513,37.8656],[125.3589,37.8571],[125.3635,37.8523],[125.3742,37.8475],[125.3803,37.8439],[125.3483,37.8234],[125.33,37.8137],[125.3117,37.8101],[125.3117,37.8113],[125.3117,37.8173],[125.3086,37.8198],[125.3056,37.8234],[125.2446,37.8234],[125.2553,37.839],[125.298,37.8607],[125.3117,37.8788],[125.3056,37.8957],[125.2614,37.9149],[125.266,37.933],[125.2446,37.9306],[125.234,37.9161],[125.2218,37.8981],[125.2111,37.8812],[125.1974,37.8728],[125.1791,37.868],[125.1608,37.868],[125.1044,37.8764],[125.0922,37.8788],[125.0678,37.8957],[125.0572,37.8993],[125.0358,37.9017],[125.0175,37.9065],[125.0099,37.9197],[125.0175,37.9402],[124.9916,37.9282],[124.9855,37.927],[124.9886,37.9438],[124.9962,37.9534],[125.0099,37.9583],[125.0282,37.9607],[125.0419,37.9643],[125.0678,37.9787],[125.0785,37.9811],[125.0922,37.9775],[125.1212,37.9643],[125.1395,37.9607],[125.1547,37.9619],[125.1684,37.9643],[125.1791,37.9703],[125.1898,37.9811],[125.1821,37.9895],[125.1715,37.9823],[125.1608,37.9811],[125.1471,37.9835],[125.1288,37.9991],[125.1212,38.0004],[125.1181,38.0028],[125.1151,38.016],[125.1105,38.0352],[125.1212,38.0436],[125.1608,38.0436],[125.205,38.0496],[125.2187,38.046],[125.2218,38.0376],[125.2218,38.028],[125.2294,38.0232],[125.2507,38.0208],[125.2583,38.0544],[125.2766,38.0641],[125.269,38.0785],[125.2507,38.0833],[125.2111,38.0833],[125.1943,38.0869],[125.1608,38.0953],[125.1425,38.0989],[125.1288,38.0953],[125.0785,38.0773],[125.0313,38.0701],[125.0175,38.0641],[124.9413,38.0989],[124.9093,38.1265],[124.891,38.1325],[124.8804,38.1145],[124.8697,38.1073],[124.8453,38.1025],[124.7981,38.0989],[124.6822,38.1157],[124.6716,38.1265],[124.6792,38.1373],[124.7005,38.1457],[124.7508,38.1481],[124.7691,38.1565],[124.7767,38.1769],[124.7828,38.1805],[124.827,38.1865],[124.8331,38.1949],[124.8484,38.2189],[124.859,38.2273],[124.8849,38.2309],[124.8987,38.2225],[124.923,38.1901],[124.9352,38.1937],[124.9962,38.2273],[124.9703,38.2357],[124.92,38.2297],[124.891,38.2464],[124.8773,38.2572],[124.8727,38.2668],[124.8727,38.2836],[124.8849,38.3458],[124.888,38.3554],[124.9307,38.4104],[124.9383,38.4212],[124.952,38.4523],[124.9627,38.4618],[124.9703,38.4642],[124.9779,38.4642],[124.9779,38.4559],[124.9779,38.4415],[124.9886,38.4523],[125.0069,38.4738],[125.0206,38.4989],[125.0252,38.5168],[125.0175,38.5263],[124.9992,38.5371],[124.9962,38.5466],[124.9992,38.5586],[125.0023,38.5669],[124.9992,38.5753],[124.9855,38.586],[124.9886,38.592],[125.0023,38.5943],[125.0206,38.5836],[125.0313,38.5908],[125.0419,38.592],[125.0465,38.5824],[125.0648,38.5693],[125.0861,38.586],[125.1075,38.5943],[125.1318,38.58],[125.1395,38.592],[125.1395,38.611],[125.1395,38.6265],[125.1288,38.6349],[125.1212,38.6468],[125.1212,38.6587],[125.1288,38.6671],[125.1425,38.6635],[125.1547,38.6468],[125.1608,38.6325],[125.1821,38.6361],[125.1867,38.6432],[125.1821,38.6587],[125.1821,38.6718],[125.1943,38.6683],[125.1974,38.6587],[125.208,38.6528],[125.2263,38.6563],[125.2401,38.6587],[125.2614,38.6706],[125.2721,38.6718],[125.2843,38.6647],[125.3056,38.6587],[125.3163,38.6671],[125.3239,38.6706],[125.3346,38.6802],[125.3483,38.6885],[125.3742,38.6956],[125.4016,38.6956],[125.4092,38.6933],[125.4351,38.6885],[125.4458,38.6873],[125.4489,38.6909],[125.4489,38.6968],[125.4565,38.7052],[125.4672,38.7087],[125.5098,38.6873],[125.5174,38.679],[125.5174,38.6587],[125.5251,38.6528],[125.5357,38.6551],[125.5434,38.6647],[125.5464,38.6754],[125.5495,38.6802],[125.5601,38.679],[125.5677,38.6718],[125.5754,38.6635],[125.5784,38.6563],[125.5891,38.6432],[125.615,38.6325],[125.6439,38.6277],[125.6607,38.6325],[125.6546,38.6397],[125.6394,38.6551],[125.6363,38.6599],[125.6257,38.6635],[125.6043,38.6635],[125.5937,38.6671],[125.5464,38.7123],[125.5312,38.723],[125.5174,38.7242],[125.4961,38.7242],[125.4809,38.729],[125.4778,38.7361],[125.4534,38.773],[125.4534,38.7766],[125.4534,38.7778],[125.4412,38.7766],[125.4382,38.773],[125.4351,38.7647],[125.4275,38.7564],[125.4169,38.7564],[125.4245,38.7516],[125.4306,38.7457],[125.4382,38.7373],[125.4245,38.7314],[125.3909,38.7195],[125.3772,38.723],[125.3666,38.7361],[125.3589,38.7361],[125.3559,38.723],[125.3452,38.7195],[125.3193,38.723],[125.3163,38.7254],[125.3163,38.7314],[125.3086,38.7361],[125.3056,38.7361],[125.301,38.729],[125.301,38.723],[125.3086,38.7171],[125.3117,38.7135],[125.3117,38.7087],[125.298,38.704],[125.2843,38.704],[125.266,38.7087],[125.2553,38.7195],[125.2477,38.729],[125.2507,38.7373],[125.2721,38.7564],[125.266,38.7599],[125.2583,38.7635],[125.2614,38.773],[125.2583,38.7849],[125.2446,38.7956],[125.2294,38.7968],[125.234,38.773],[125.2218,38.7409],[125.1943,38.7397],[125.1791,38.7528],[125.176,38.7647],[125.1608,38.7695],[125.1501,38.7778],[125.1395,38.8051],[125.1471,38.8218],[125.1501,38.8396],[125.1547,38.8764],[125.1578,38.8931],[125.1684,38.9168],[125.176,38.9406],[125.1943,38.9596],[125.205,38.9762],[125.205,38.988],[125.2157,39.0034],[125.237,39.0319],[125.2553,39.0509],[125.266,39.0675],[125.2766,39.0829],[125.2949,39.0829],[125.3193,39.0805],[125.3376,39.084],[125.2873,39.0911],[125.2904,39.0994],[125.2949,39.1065],[125.2949,39.1125],[125.2904,39.1184],[125.2904,39.1243],[125.2904,39.1326],[125.2949,39.1397],[125.298,39.1444],[125.298,39.148],[125.2904,39.1539],[125.301,39.1634],[125.3117,39.1669],[125.3376,39.1669],[125.3483,39.1705],[125.3452,39.1776],[125.3376,39.187],[125.3346,39.1953],[125.3483,39.2142],[125.3696,39.2225],[125.3909,39.2213],[125.4169,39.2154],[125.4092,39.2308],[125.3986,39.2379],[125.3986,39.2485],[125.4351,39.3016],[125.4489,39.3123],[125.4351,39.3135],[125.4199,39.3229],[125.4169,39.3359],[125.4245,39.3524],[125.4169,39.3559],[125.4092,39.3666],[125.4199,39.363],[125.4245,39.363],[125.4275,39.3595],[125.4489,39.3677],[125.4595,39.376],[125.4641,39.3866],[125.4412,39.3866],[125.3803,39.3937],[125.3635,39.3996],[125.3635,39.4149],[125.3879,39.442],[125.3772,39.442],[125.3666,39.442],[125.3559,39.4385],[125.3483,39.4361],[125.3483,39.4609],[125.3635,39.4762],[125.3848,39.488],[125.4016,39.5033],[125.4062,39.515],[125.4092,39.528],[125.4169,39.5398],[125.4458,39.5492],[125.4534,39.5586],[125.4565,39.5727],[125.4489,39.5856],[125.4351,39.5774],[125.33,39.5351],[125.3086,39.528],[125.298,39.5256],[125.2904,39.5233],[125.2797,39.528],[125.2553,39.5527],[125.2507,39.5551],[125.2401,39.5645],[125.2218,39.5692],[125.2157,39.5739],[125.2294,39.5927],[125.1608,39.5927],[125.1654,39.588],[125.1715,39.5704],[125.176,39.5657],[125.1318,39.5657],[125.1212,39.5668],[125.1181,39.5727],[125.1181,39.5798],[125.1151,39.5856],[125.1075,39.5939],[125.1075,39.6009],[125.0998,39.6045],[125.0892,39.6056],[125.0755,39.6033],[125.0648,39.6033],[125.0526,39.6056],[125.0419,39.6092],[125.0206,39.6268],[125.0175,39.6303],[125.013,39.6362],[125.0069,39.6385],[124.9992,39.6385],[124.9916,39.6397],[124.9627,39.6632],[124.952,39.6656],[124.9413,39.6479],[124.9307,39.655],[124.9169,39.6585],[124.9063,39.6632],[124.8987,39.6938],[124.8849,39.7055],[124.8697,39.7161],[124.8514,39.7231],[124.8377,39.7278],[124.8163,39.7301],[124.8087,39.7325],[124.8057,39.7419],[124.7767,39.7431],[124.7661,39.7501],[124.7615,39.7724],[124.7508,39.7853],[124.7432,39.7736],[124.7432,39.763],[124.7478,39.7548],[124.7554,39.7466],[124.7584,39.736],[124.7554,39.7243],[124.7554,39.7114],[124.7478,39.702],[124.7478,39.6926],[124.7615,39.6891],[124.7584,39.6738],[124.7432,39.6738],[124.7325,39.6667],[124.7401,39.6573],[124.7478,39.6468],[124.7401,39.6432],[124.7219,39.6479],[124.7005,39.6397],[124.6792,39.6233],[124.6533,39.615],[124.6472,39.5962],[124.6426,39.5927],[124.6289,39.5998],[124.6289,39.6045],[124.6289,39.6056],[124.6319,39.6127],[124.6258,39.615],[124.6213,39.6162],[124.6213,39.6197],[124.6136,39.6303],[124.6319,39.6468],[124.6365,39.6656],[124.6502,39.6726],[124.6533,39.6855],[124.6502,39.6996],[124.6426,39.6996],[124.6365,39.6961],[124.6289,39.6961],[124.6258,39.6996],[124.6182,39.7114],[124.6136,39.7161],[124.603,39.7208],[124.5969,39.7231],[124.5893,39.7266],[124.5862,39.7325],[124.5893,39.7431],[124.5923,39.7583],[124.5923,39.7689],[124.5893,39.7736],[124.571,39.7806],[124.5679,39.7888],[124.571,39.8087],[124.5679,39.8158],[124.5603,39.8193],[124.5237,39.8204],[124.4384,39.8322],[124.4338,39.831],[124.4307,39.8275],[124.4277,39.8263],[124.4231,39.8263],[124.4201,39.8298],[124.4125,39.838],[124.4125,39.8392],[124.4094,39.8427],[124.4018,39.8615],[124.4018,39.8685],[124.3942,39.8697],[124.3667,39.8732],[124.3545,39.8954],[124.3484,39.9024],[124.3408,39.9071],[124.3332,39.9118],[124.3271,39.9153],[124.3378,39.927],[124.3515,39.9329],[124.3622,39.9352],[124.3728,39.9422],[124.3805,39.9563],[124.3881,40.0054],[124.4094,40.0299],[124.4384,40.0264],[124.4704,40.0171],[124.5024,40.0252],[124.4841,40.0323],[124.4384,40.0358],[124.417,40.0393],[124.3942,40.0509],[124.3881,40.0673],[124.3835,40.0848],[124.3728,40.1],[124.3911,40.1128],[124.5313,40.2166],[124.5344,40.2178],[124.5466,40.2201],[124.5527,40.2224],[124.5527,40.2259],[124.5572,40.2388],[124.5603,40.2434],[124.574,40.2551],[124.6136,40.2737],[124.6319,40.2888],[124.6472,40.297],[124.6975,40.3063],[124.7188,40.3121],[124.7264,40.3295],[124.7371,40.3516],[124.7432,40.3737],[124.7615,40.3819],[124.7828,40.3854],[124.8057,40.397],[124.856,40.4342],[124.888,40.4678],[124.8956,40.4794],[124.8987,40.4864],[124.9093,40.4783],[124.92,40.4678],[124.923,40.4632],[124.9307,40.4597],[124.9383,40.4574],[124.9627,40.4562],[124.9916,40.4597],[125.0099,40.4574],[125.0313,40.4597],[125.0465,40.4632],[125.0495,40.4725],[125.0419,40.4864],[125.0313,40.498],[125.0206,40.5108],[125.0206,40.5235],[125.0282,40.5375],[125.0526,40.5444],[125.0785,40.5502],[125.0922,40.5572],[125.1181,40.5664],[125.1364,40.5757],[125.1578,40.5861],[125.1867,40.5966],[125.2187,40.6047],[125.2477,40.6128],[125.2614,40.6163],[125.269,40.6255],[125.2766,40.6348],[125.2797,40.6452],[125.298,40.651],[125.3117,40.6522],[125.3269,40.6475],[125.3406,40.6441],[125.3589,40.6487],[125.3666,40.6487],[125.3772,40.6475],[125.3879,40.6371],[125.3955,40.6348],[125.4169,40.6336],[125.4199,40.6417],[125.4199,40.6533],[125.4199,40.6556],[125.4245,40.6695],[125.4306,40.6742],[125.4489,40.6707],[125.4565,40.6753],[125.4595,40.6823],[125.4595,40.6961],[125.4641,40.7042],[125.4748,40.7147],[125.4809,40.7216],[125.4961,40.7228],[125.5357,40.7251],[125.5495,40.7285],[125.5571,40.7401],[125.5601,40.7621],[125.5647,40.7806],[125.5754,40.7875],[125.5891,40.784],[125.6043,40.7759],[125.6104,40.7667],[125.615,40.7632],[125.6729,40.7655],[125.6866,40.7725],[125.676,40.7875],[125.647,40.8129],[125.6866,40.8498],[125.708,40.8614],[125.7125,40.8637],[125.74,40.8683],[125.7506,40.8706],[125.7552,40.8764],[125.7583,40.8833],[125.7659,40.8891],[125.7735,40.8891],[125.7842,40.8868],[125.8268,40.8718],[125.8345,40.8741],[125.8771,40.896],[125.8878,40.9006],[125.9061,40.9018],[125.9168,40.8972],[125.9274,40.8868],[125.9381,40.8798],[125.9533,40.8856],[125.9671,40.8937],[125.9991,40.8972],[126.0097,40.9018],[126.0174,40.9121],[126.0143,40.9156],[125.9991,40.9179],[125.9854,40.9156],[125.996,40.9306],[126.0143,40.9364],[126.0326,40.9375],[126.0494,40.9479],[126.0677,40.9721],[126.0753,40.9836],[126.0722,40.9917],[126.0783,40.9997],[126.0859,41.0055],[126.0966,41.0089],[126.1073,41.0124],[126.1042,41.0251],[126.1149,41.0354],[126.1286,41.0458],[126.1439,41.0596],[126.1286,41.078],[126.1515,41.0952],[126.2658,41.1458],[126.2765,41.1562],[126.2871,41.1677],[126.313,41.2113],[126.3237,41.2216],[126.3481,41.24],[126.3588,41.2515],[126.3847,41.2939],[126.3953,41.3065],[126.4456,41.3512],[126.4746,41.3707],[126.5036,41.3684],[126.5036,41.3649],[126.5005,41.3615],[126.4959,41.3581],[126.4929,41.3546],[126.4929,41.3466],[126.5249,41.3546],[126.5249,41.381],[126.5112,41.413],[126.5036,41.4382],[126.5112,41.4496],[126.5462,41.4919],[126.5615,41.5376],[126.5782,41.5651],[126.5859,41.5776],[126.5782,41.5913],[126.5721,41.605],[126.5721,41.6175],[126.6041,41.6461],[126.6224,41.6689],[126.6362,41.6711],[126.6727,41.6711],[126.6834,41.6746],[126.7154,41.6985],[126.7306,41.7053],[126.72,41.7133],[126.7017,41.7201],[126.691,41.727],[126.6834,41.7384],[126.7017,41.7441],[126.7154,41.7441],[126.7306,41.7406],[126.7444,41.7315],[126.7733,41.7087],[126.7916,41.6996],[126.7977,41.7087],[126.813,41.7338],[126.8663,41.7509],[126.8815,41.7771],[126.8922,41.7873],[126.9135,41.7998],[126.9318,41.8044],[126.9425,41.7975],[126.9425,41.7759],[126.9501,41.7691],[126.9608,41.7702],[126.9852,41.7668],[127.0035,41.7554],[127.0355,41.7349],[127.0461,41.7349],[127.0507,41.7213],[127.0721,41.6962],[127.0797,41.6848],[127.0614,41.6848],[127.0538,41.6814],[127.0507,41.6711],[127.0538,41.6563],[127.0614,41.6461],[127.0751,41.6392],[127.1086,41.629],[127.1041,41.6255],[127.101,41.6153],[127.1193,41.6141],[127.1696,41.5982],[127.1833,41.5879],[127.162,41.581],[127.1406,41.573],[127.1223,41.5593],[127.1086,41.5411],[127.1147,41.5388],[127.1223,41.5376],[127.133,41.5342],[127.1361,41.5262],[127.1437,41.5274],[127.1589,41.5342],[127.1696,41.5308],[127.1726,41.5274],[127.1757,41.5228],[127.1833,41.5205],[127.1909,41.5239],[127.2047,41.5445],[127.2092,41.5491],[127.226,41.5445],[127.2489,41.5308],[127.2626,41.5296],[127.2702,41.5308],[127.2763,41.5342],[127.2839,41.5342],[127.2915,41.5296],[127.2915,41.5228],[127.2885,41.5159],[127.2763,41.5102],[127.2732,41.5091],[127.2885,41.5022],[127.3098,41.4965],[127.3494,41.4931],[127.3555,41.4954],[127.3738,41.4999],[127.3814,41.5022],[127.3921,41.4988],[127.3997,41.4931],[127.4028,41.4908],[127.4058,41.4874],[127.4317,41.4874],[127.4455,41.4908],[127.4607,41.4965],[127.479,41.5022],[127.4927,41.4988],[127.511,41.4919],[127.5293,41.4874],[127.5476,41.4931],[127.5476,41.4714],[127.5613,41.4611],[127.6009,41.4531],[127.6329,41.4359],[127.6406,41.4325],[127.6512,41.4359],[127.6619,41.4496],[127.6649,41.4496],[127.6939,41.4416],[127.7884,41.4393],[127.8128,41.4462],[127.8311,41.4359],[127.8524,41.4348],[127.8676,41.4416],[127.8737,41.4565],[127.8844,41.4634],[127.9073,41.4702],[127.9469,41.4736],[127.9789,41.4531],[127.9865,41.4565],[127.9972,41.4645],[128.0033,41.4736],[128.014,41.4634],[128.014,41.4451],[128.014,41.4279],[128.0185,41.4165],[128.0262,41.4142],[128.0368,41.4165],[128.0536,41.4245],[128.0505,41.4027],[128.0688,41.3924],[128.0902,41.3924],[128.1085,41.4027],[128.1222,41.3959],[128.1085,41.3821],[128.1481,41.3787],[128.1877,41.4073],[128.2914,41.5479],[128.3066,41.5867],[128.2853,41.6084],[128.2853,41.6255],[128.27,41.6461],[128.2517,41.6632],[128.2273,41.6723],[128.1877,41.6962],[128.1618,41.7144],[128.1588,41.7372],[128.1481,41.7577],[128.1008,41.826],[128.0932,41.8453],[128.0612,41.8533],[128.0505,41.8669],[128.0429,41.8828],[128.0216,41.968],[128.0262,41.9838],[128.0368,41.9975],[128.0582,42.002],[128.1039,42.002],[128.2624,42.036],[128.3676,42.0292],[128.3889,42.0247],[128.4102,42.0122],[128.4575,42.0145],[128.4895,42.0009],[128.5047,41.9986],[128.5474,42.0111],[128.555,42.0111],[128.5657,42.0043],[128.5764,42.0077],[128.5901,42.0247],[128.6007,42.0315],[128.6114,42.0349],[128.6846,42.0292],[128.712,42.0349],[128.7242,42.0507],[128.8202,42.0473],[128.8858,42.0349],[128.9071,42.0292],[128.9437,42.0394],[128.9574,42.0779],[128.965,42.0915],[128.9864,42.0972],[129.0107,42.0983],[129.029,42.1051],[129.0549,42.1255],[129.0656,42.139],[129.0656,42.1572],[129.09,42.1458],[129.1083,42.1458],[129.1235,42.1526],[129.1525,42.1775],[129.1799,42.1967],[129.1982,42.2137],[129.2058,42.2182],[129.2134,42.2239],[129.2165,42.2284],[129.2134,42.2385],[129.1875,42.2385],[129.1845,42.2476],[129.1845,42.2577],[129.1952,42.2645],[129.2058,42.2657],[129.2134,42.2713],[129.2165,42.2792],[129.2165,42.2882],[129.2195,42.295],[129.2302,42.3018],[129.2241,42.3086],[129.2134,42.3119],[129.2058,42.3131],[129.1952,42.3153],[129.1952,42.3221],[129.2272,42.3221],[129.2378,42.3266],[129.2455,42.3424],[129.2424,42.3469],[129.2378,42.3503],[129.2302,42.3537],[129.2302,42.3627],[129.2348,42.3706],[129.2378,42.3774],[129.2455,42.383],[129.2988,42.3909],[129.3064,42.392],[129.3095,42.4112],[129.3171,42.4258],[129.3278,42.4292],[129.3384,42.4179],[129.3537,42.4247],[129.346,42.4326],[129.343,42.4416],[129.343,42.4483],[129.3537,42.4517],[129.3643,42.4483],[129.375,42.4359],[129.3887,42.4314],[129.3963,42.4326],[129.407,42.4393],[129.4223,42.445],[129.436,42.445],[129.4832,42.4145],[129.4893,42.4055],[129.5183,42.3943],[129.5259,42.3875],[129.5289,42.3774],[129.5366,42.374],[129.5472,42.3762],[129.5549,42.3807],[129.5625,42.3909],[129.5625,42.401],[129.5655,42.4078],[129.5914,42.4145],[129.5975,42.4258],[129.5975,42.4393],[129.5945,42.4517],[129.6341,42.4483],[129.6737,42.4416],[129.7057,42.4461],[129.7316,42.4787],[129.7347,42.5159],[129.7347,42.5552],[129.7377,42.5889],[129.7637,42.6103],[129.7637,42.6159],[129.7484,42.6192],[129.7423,42.6327],[129.753,42.6462],[129.7774,42.6507],[129.7743,42.6664],[129.7819,42.6742],[129.788,42.681],[129.788,42.6877],[129.7774,42.6967],[129.7667,42.7],[129.7606,42.7068],[129.756,42.7258],[129.7606,42.7393],[129.7637,42.7505],[129.7743,42.7707],[129.7926,42.7964],[129.7957,42.8098],[129.7987,42.8401],[129.8353,42.9116],[129.8429,42.9217],[129.8505,42.9317],[129.8505,42.9552],[129.8536,42.9653],[129.8642,42.9742],[129.8963,42.9753],[129.9069,42.9809],[129.9008,42.982],[129.8932,42.9876],[129.8856,42.992],[129.8825,43.001],[129.8932,43.0043],[129.9115,43.0121],[129.9222,43.0144],[129.9359,43.0121],[129.9435,43.0077],[129.9725,42.9775],[129.9831,42.9708],[129.9968,42.9653],[130.0121,42.9653],[130.0471,42.9653],[130.0944,42.9809],[130.1233,42.9854],[130.134,42.9775],[130.131,42.9641],[130.1233,42.9463],[130.1127,42.9329],[130.102,42.925],[130.1416,42.9116],[130.195,42.9128],[130.2422,42.906],[130.2559,42.8703],[130.2453,42.7863],[130.2453,42.7471],[130.2636,42.7124],[130.3169,42.6709],[130.3245,42.654],[130.3931,42.6103],[130.4038,42.6069],[130.4145,42.6091],[130.4221,42.6091],[130.4297,42.6035],[130.4327,42.5957],[130.4297,42.5754],[130.4327,42.5653],[130.4541,42.553],[130.4693,42.5586],[130.4724,42.5732],[130.4587,42.5889],[130.4693,42.6035],[130.4861,42.6136],[130.5044,42.6136],[130.5196,42.6035],[130.5227,42.5923],[130.5257,42.553],[130.5333,42.535],[130.544,42.5147],[130.5486,42.5114],[130.5486,42.499],[130.5516,42.4945],[130.5547,42.4911],[130.5592,42.4877],[130.576,42.4495],[130.5882,42.4359],[130.6095,42.4247],[130.6309,42.4179],[130.6492,42.4044],[130.6598,42.3875],[130.6629,42.3627],[130.6629,42.3368],[130.6629,42.3255],[130.6736,42.3153],[130.7025,42.2984],[130.6949,42.2927],[130.6705,42.286],[130.6339,42.2781],[130.6202,42.2758],[130.605,42.2679],[130.5989,42.2657],[130.5989,42.2848],[130.5989,42.2961],[130.5989,42.3018],[130.5836,42.3119],[130.5699,42.3187],[130.541,42.3221],[130.5196,42.3322],[130.512,42.3401],[130.483,42.3435],[130.4693,42.339],[130.4724,42.3255],[130.4587,42.3153],[130.4404,42.3131],[130.4327,42.3221],[130.4221,42.3289],[130.4068,42.3289],[130.4068,42.3198],[130.4068,42.3119],[130.3962,42.3029],[130.3855,42.295],[130.3901,42.2815],[130.3901,42.2747],[130.3931,42.2679],[130.4007,42.2679],[130.4068,42.2645],[130.4068,42.2521],[130.4038,42.2453],[130.3962,42.2476],[130.3794,42.2611],[130.3672,42.2589],[130.3611,42.2476],[130.3718,42.2352],[130.3611,42.2318],[130.3535,42.2205],[130.3352,42.2171],[130.3322,42.1945],[130.3215,42.1877],[130.3108,42.1866],[130.3108,42.2013],[130.3169,42.2216],[130.3108,42.2408],[130.2956,42.2408],[130.2529,42.208],[130.2316,42.1866],[130.2163,42.1775],[130.2026,42.1764],[130.2057,42.1628],[130.2026,42.1051],[130.195,42.104],[130.1874,42.1074],[130.1767,42.1017],[130.163,42.0881],[130.166,42.087],[130.1706,42.0802],[130.163,42.0768],[130.1523,42.0779],[130.134,42.0881],[130.1233,42.0938],[130.0944,42.0938],[130.0761,42.0813],[130.07,42.0632],[130.07,42.0541],[130.0548,42.0541],[130.0517,42.0462],[130.0471,42.0394],[130.0365,42.0156],[130.0365,41.9986],[130.0304,41.9952],[130.0151,42.0179],[130.0045,42.0145],[130.0045,41.994],[129.9831,41.985],[129.9907,41.9816],[129.9968,41.977],[130.0045,41.9646],[129.9938,41.9634],[129.9862,41.9589],[129.9755,41.9453],[129.9801,41.9464],[129.9755,41.9385],[129.9725,41.926],[129.9725,41.9214],[129.9648,41.9021],[129.9572,41.8953],[129.9466,41.8976],[129.9405,41.9078],[129.9145,41.9146],[129.9008,41.9078],[129.8932,41.8862],[129.8856,41.8601],[129.8856,41.8283],[129.8719,41.7941],[129.8566,41.7839],[129.8536,41.7668],[129.846,41.7623],[129.8277,41.7805],[129.814,41.7805],[129.7774,41.7623],[129.7637,41.7338],[129.753,41.6996],[129.7423,41.6882],[129.7164,41.678],[129.692,41.6529],[129.6844,41.6198],[129.6692,41.5799],[129.6524,41.5525],[129.6631,41.5296],[129.6585,41.5125],[129.6554,41.4965],[129.6631,41.4679],[129.6844,41.4462],[129.7027,41.4313],[129.7164,41.4222],[129.7377,41.4245],[129.7454,41.4096],[129.7606,41.3959],[129.7713,41.389],[129.7774,41.389],[129.7926,41.3901],[129.7987,41.389],[129.8063,41.3787],[129.8063,41.3752],[129.8033,41.3718],[129.7987,41.3581],[129.7957,41.3546],[129.788,41.3329],[129.788,41.3283],[129.7713,41.318],[129.7606,41.2962],[129.721,41.1688],[129.7134,41.1251],[129.7316,41.0883],[129.724,41.0745],[129.721,41.0596],[129.724,41.0251],[129.7316,40.9813],[129.7347,40.9721],[129.753,40.9548],[129.7667,40.9479],[129.756,40.941],[129.753,40.9191],[129.756,40.9121],[129.7347,40.8937],[129.7377,40.8741],[129.7271,40.8498],[129.721,40.8383],[129.7088,40.8383],[129.6981,40.8487],[129.6874,40.8452],[129.6661,40.8418],[129.6448,40.8452],[129.6265,40.8418],[129.6128,40.8429],[129.6021,40.8418],[129.5731,40.8429],[129.5549,40.8314],[129.5549,40.8129],[129.5335,40.8094],[129.5183,40.7979],[129.5076,40.7944],[129.4786,40.7956],[129.4283,40.784],[129.3933,40.7632],[129.3537,40.7482],[129.343,40.7366],[129.3323,40.7216],[129.314,40.6892],[129.3064,40.6753],[129.2988,40.6788],[129.2881,40.6857],[129.282,40.7008],[129.2744,40.7112],[129.2561,40.7112],[129.2348,40.7077],[129.2195,40.6996],[129.2134,40.688],[129.2089,40.6776],[129.2089,40.673],[129.2089,40.6661],[129.2058,40.6591],[129.2028,40.6533],[129.1982,40.6406],[129.1952,40.6348],[129.1906,40.6255],[129.1875,40.6186],[129.1799,40.6116],[129.1769,40.607],[129.1769,40.5966],[129.1738,40.5711],[129.1632,40.5676],[129.1586,40.5595],[129.1525,40.5491],[129.1159,40.5131],[129.0793,40.4748],[129.0336,40.476],[128.9787,40.4632],[128.904,40.4005],[128.8644,40.3737],[128.8309,40.3703],[128.8172,40.3563],[128.7852,40.3493],[128.7669,40.3482],[128.7562,40.3377],[128.7242,40.3412],[128.6907,40.333],[128.6739,40.3121],[128.6587,40.3121],[128.6587,40.3226],[128.6404,40.3156],[128.6221,40.2993],[128.619,40.2737],[128.6297,40.269],[128.6587,40.2597],[128.6617,40.2504],[128.6693,40.2434],[128.6663,40.2283],[128.6663,40.2026],[128.6556,40.1991],[128.6449,40.1921],[128.6373,40.1863],[128.6297,40.1828],[128.6221,40.1828],[128.6114,40.1875],[128.5901,40.1886],[128.5794,40.1828],[128.5474,40.1688],[128.5398,40.1537],[128.5291,40.1455],[128.5108,40.1373],[128.4819,40.1373],[128.4682,40.1268],[128.4499,40.1117],[128.4392,40.1058],[128.4148,40.0977],[128.3965,40.1012],[128.3676,40.1],[128.3416,40.0696],[128.331,40.0299],[128.3066,40.0358],[128.2853,40.0673],[128.267,40.079],[128.238,40.0696],[128.2304,40.0591],[128.238,40.0323],[128.2273,40.0299],[128.206,40.0323],[128.1953,40.0323],[128.1831,40.0288],[128.1664,40.0206],[128.1588,40.0182],[128.1481,40.0206],[128.1481,40.0252],[128.1405,40.0288],[128.0109,40.0474],[128.0033,40.0416],[128.0033,40.0288],[128.0002,40.0217],[127.9926,40.0171],[127.982,40.0136],[127.9759,40.0101],[127.9682,40.0065],[127.9499,39.9832],[127.9423,39.9762],[127.9317,39.975],[127.9103,39.9867],[127.892,39.9633],[127.892,39.9457],[127.8844,39.9036],[127.8783,39.8954],[127.7838,39.8872],[127.7991,39.8779],[127.7945,39.8685],[127.7671,39.8568],[127.7305,39.8591],[127.6985,39.8497],[127.6832,39.8193],[127.6649,39.8087],[127.6512,39.8228],[127.6253,39.8322],[127.6116,39.8122],[127.5979,39.8076],[127.5796,39.7993],[127.5643,39.7853],[127.5537,39.763],[127.5247,39.7477],[127.5186,39.7395],[127.514,39.7325],[127.508,39.7172],[127.5034,39.709],[127.5034,39.7008],[127.511,39.6855],[127.511,39.662],[127.514,39.6515],[127.5217,39.6468],[127.5323,39.6479],[127.5537,39.6385],[127.572,39.6197],[127.5796,39.5962],[127.54,39.5539],[127.5217,39.5115],[127.54,39.4456],[127.5643,39.3465],[127.5643,39.317],[127.5582,39.3076],[127.5476,39.304],[127.5354,39.3076],[127.5247,39.317],[127.5247,39.3312],[127.5293,39.3465],[127.5476,39.3725],[127.511,39.4102],[127.508,39.4232],[127.4973,39.4361],[127.4851,39.4385],[127.4714,39.4326],[127.4424,39.4102],[127.4424,39.4067],[127.4348,39.3984],[127.4287,39.3937],[127.3814,39.3795],[127.3814,39.3725],[127.3921,39.3677],[127.418,39.363],[127.4287,39.3595],[127.4424,39.3666],[127.4577,39.3701],[127.4714,39.3666],[127.4744,39.3489],[127.4714,39.3406],[127.4394,39.3359],[127.4287,39.3323],[127.4241,39.3371],[127.418,39.343],[127.4104,39.3441],[127.4028,39.3465],[127.3952,39.343],[127.3952,39.3371],[127.3997,39.3312],[127.4028,39.3253],[127.3891,39.2981],[127.3814,39.2698],[127.3738,39.2414],[127.3845,39.2249],[127.3952,39.2036],[127.4104,39.1953],[127.4241,39.1906],[127.4424,39.1716],[127.4577,39.1669],[127.4744,39.1705],[127.479,39.1787],[127.4744,39.1894],[127.4744,39.1953],[127.4927,39.1953],[127.514,39.1586],[127.5354,39.148],[127.6116,39.1539],[127.6329,39.148],[127.6482,39.1397],[127.6543,39.1314],[127.6649,39.1231],[127.6802,39.1196],[127.7488,39.1196],[127.7625,39.1184],[127.7731,39.1113],[127.7945,39.0793],[127.828,39.0449],[127.8341,39.0331],[127.8387,39.02],[127.8524,39.0034],[127.889,38.9762],[127.892,38.9619],[127.8966,38.9596],[127.9073,38.9655],[127.9103,38.969],[127.9179,38.9655],[127.921,38.9596],[127.924,38.9441],[127.9286,38.9358],[127.9362,38.9299],[127.9469,38.9275],[127.9637,38.918],[127.9972,38.8764],[128.0185,38.8598],[128.0932,38.8444],[128.2121,38.729],[128.2273,38.7338],[128.2731,38.7528],[128.2853,38.7564],[128.3173,38.7195],[128.3249,38.7123],[128.3416,38.704],[128.3493,38.6968],[128.363,38.6802],[128.363,38.6766],[128.363,38.6611],[128.363,38.6432],[128.3676,38.6265]]],[[[128.3676,38.6265],[128.3965,38.5788],[128.4422,38.506],[128.4544,38.4762],[128.4758,38.4272],[128.5657,38.2896],[128.6343,38.1457],[128.6449,38.1289],[128.68,38.0953],[128.6952,38.0653],[128.8598,37.8776],[128.9254,37.8029],[129.0046,37.7353],[129.0153,37.7269],[129.0656,37.6798],[129.0687,37.6593],[129.0687,37.6339],[129.0763,37.6146],[129.1129,37.5976],[129.1235,37.5807],[129.1525,37.5057],[129.1632,37.4875],[129.1799,37.4803],[129.1906,37.4706],[129.2378,37.3979],[129.2637,37.3712],[129.2744,37.3554],[129.2775,37.3397],[129.2851,37.3251],[129.3323,37.2826],[129.3491,37.2474],[129.3643,37.1708],[129.3826,37.1307],[129.4329,37.0735],[129.436,37.0613],[129.4283,37.0491],[129.4223,37.0382],[129.4146,37.0272],[129.4146,37.0175],[129.4223,36.987],[129.4329,36.898],[129.439,36.8552],[129.4725,36.7722],[129.4756,36.7306],[129.4649,36.6915],[129.4436,36.6572],[129.4253,36.6168],[129.4253,36.6156],[129.4283,36.5751],[129.4436,36.5347],[129.4497,36.4942],[129.4436,36.4071],[129.436,36.3886],[129.407,36.3579],[129.3933,36.3419],[129.3887,36.3235],[129.3857,36.2017],[129.3887,36.1844],[129.3933,36.1758],[129.3994,36.1721],[129.407,36.1672],[129.4101,36.1339],[129.4177,36.1068],[129.4283,36.1019],[129.4329,36.097],[129.4283,36.0809],[129.4223,36.0723],[129.4101,36.0674],[129.3994,36.0661],[129.3857,36.0538],[129.3826,36.0402],[129.404,36.0254],[129.4177,36.0106],[129.436,35.9958],[129.4543,35.9921],[129.4832,36.0081],[129.5442,36.0649],[129.5579,36.0809],[129.5731,36.0711],[129.5762,36.0538],[129.5838,36.0353],[129.5914,36.0155],[129.5731,35.997],[129.5366,35.9377],[129.5335,35.9118],[129.5259,35.8425],[129.4969,35.7844],[129.5015,35.7472],[129.4725,35.6828],[129.4543,35.6506],[129.4466,35.6357],[129.4543,35.6171],[129.4619,35.6084],[129.468,35.5985],[129.4649,35.5761],[129.4649,35.5513],[129.4573,35.5116],[129.4466,35.4954],[129.4283,35.478],[129.4146,35.4718],[129.407,35.488],[129.404,35.5116],[129.3887,35.529],[129.375,35.5327],[129.3674,35.5116],[129.3826,35.5103],[129.3887,35.5016],[129.3933,35.488],[129.3933,35.4743],[129.3887,35.4606],[129.3781,35.4581],[129.3674,35.4581],[129.3598,35.4507],[129.3598,35.4445],[129.3643,35.4246],[129.3674,35.4059],[129.3567,35.3935],[129.3491,35.3823],[129.3567,35.3711],[129.3643,35.3661],[129.3643,35.3524],[129.343,35.3462],[129.3247,35.3375],[129.2957,35.3138],[129.2698,35.3163],[129.2668,35.3001],[129.2637,35.2815],[129.2592,35.274],[129.2531,35.2653],[129.2561,35.2516],[129.2592,35.2453],[129.2455,35.2266],[129.2302,35.1992],[129.2134,35.183],[129.2028,35.1655],[129.1952,35.1531],[129.1799,35.1531],[129.1692,35.1555],[129.1555,35.1531],[129.1449,35.1531],[129.1342,35.1481],[129.1235,35.1481],[129.1235,35.1331],[129.1296,35.1243],[129.1296,35.1131],[129.1266,35.0994],[129.1052,35.0906],[129.0869,35.1031],[129.0732,35.1119],[129.0656,35.1194],[129.0397,35.0956],[129.029,35.0782],[129.026,35.0594],[129.0153,35.0544],[129.0107,35.0644],[129.0001,35.0744],[129.0001,35.0644],[129.0046,35.0432],[128.994,35.0432],[128.994,35.0507],[128.9864,35.0519],[128.9757,35.0469],[128.9681,35.0419],[128.9604,35.0494],[128.9543,35.0707],[128.9574,35.0906],[128.965,35.1181],[128.965,35.1318],[128.9604,35.1356],[128.9498,35.1243],[128.9208,35.0807],[128.9071,35.0794],[128.9071,35.0994],[128.9071,35.1194],[128.8995,35.1194],[128.8934,35.1044],[128.8858,35.0794],[128.8598,35.0832],[128.7958,35.0807],[128.7913,35.0994],[128.7852,35.1094],[128.7745,35.0832],[128.7638,35.0782],[128.741,35.0856],[128.7303,35.1031],[128.7196,35.1044],[128.7013,35.0944],[128.7013,35.1381],[128.6983,35.1418],[128.6907,35.1381],[128.6846,35.1306],[128.6846,35.1144],[128.6663,35.1243],[128.6556,35.1406],[128.6404,35.1481],[128.619,35.1418],[128.6267,35.1555],[128.616,35.1755],[128.619,35.1842],[128.6114,35.2092],[128.6053,35.2129],[128.5947,35.2042],[128.5794,35.188],[128.5794,35.1768],[128.5947,35.1555],[128.6007,35.1281],[128.6053,35.1194],[128.6114,35.1081],[128.6297,35.0894],[128.6343,35.0794],[128.6267,35.0669],[128.6343,35.0657],[128.648,35.0607],[128.6556,35.0607],[128.6449,35.0557],[128.6373,35.0544],[128.616,35.0544],[128.6053,35.0557],[128.6053,35.0607],[128.6007,35.0669],[128.5977,35.0744],[128.5901,35.0832],[128.5825,35.0856],[128.5291,35.1019],[128.5154,35.1031],[128.4819,35.0981],[128.4712,35.0944],[128.4712,35.0881],[128.4819,35.0744],[128.4651,35.0707],[128.4316,35.0557],[128.3919,35.0469],[128.3858,35.0357],[128.3858,35.0219],[128.3752,35.0119],[128.3752,35.0044],[128.4758,35.0494],[128.4895,35.0494],[128.4925,35.0319],[128.5002,35.0182],[128.5002,35.0082],[128.4925,34.9944],[128.4819,34.9882],[128.4605,34.9869],[128.4422,34.9869],[128.4285,34.9919],[128.4209,34.9807],[128.4285,34.9757],[128.4361,34.9732],[128.4422,34.9644],[128.4422,34.9582],[128.4422,34.9507],[128.4422,34.9307],[128.4361,34.8881],[128.4468,34.8819],[128.4544,34.8844],[128.4605,34.8919],[128.4651,34.9019],[128.4758,34.8881],[128.4651,34.8681],[128.4392,34.8405],[128.4148,34.8355],[128.3858,34.838],[128.3858,34.8531],[128.4072,34.8531],[128.4148,34.8543],[128.4179,34.8618],[128.3569,34.8668],[128.3416,34.8718],[128.3279,34.8869],[128.3279,34.8956],[128.3386,34.9006],[128.3599,34.9081],[128.3386,34.9457],[128.3203,34.9319],[128.3066,34.9069],[128.2807,34.9056],[128.2593,34.9294],[128.2487,34.9344],[128.2273,34.9357],[128.2167,34.9307],[128.2121,34.9182],[128.209,34.9031],[128.209,34.8881],[128.1877,34.8919],[128.1405,34.8906],[128.1222,34.8981],[128.1222,34.9031],[128.1222,34.9182],[128.1191,34.9219],[128.1161,34.9244],[128.1039,34.9219],[128.0902,34.9257],[128.0658,34.9257],[128.0582,34.9307],[128.0536,34.9369],[128.0536,34.9457],[128.0582,34.9544],[128.0582,34.9607],[128.0582,35.0332],[128.0582,35.0457],[128.0612,35.0519],[128.0658,35.0594],[128.0719,35.0694],[128.0719,35.0807],[128.0582,35.0657],[128.0429,35.0469],[128.0292,35.0332],[128.0033,35.0319],[128.0216,34.9969],[128.0109,34.9894],[127.982,34.9919],[127.9576,34.9782],[127.9469,35.0019],[127.9393,35.0119],[127.9286,35.0182],[127.924,34.9869],[127.9134,34.9607],[127.892,34.9457],[127.8676,34.9419],[127.857,34.9457],[127.8463,34.9494],[127.8387,34.9469],[127.8341,34.9419],[127.8173,34.9519],[127.8097,34.9557],[127.8021,34.9582],[127.7594,34.9557],[127.7488,34.9594],[127.7411,34.9644],[127.7411,34.9707],[127.7335,34.9807],[127.7229,34.9882],[127.7198,34.9807],[127.7198,34.9694],[127.7229,34.9644],[127.7168,34.9457],[127.7122,34.9394],[127.7015,34.9307],[127.6649,34.9056],[127.6436,34.8969],[127.6299,34.9081],[127.6116,34.9394],[127.5933,34.9444],[127.5826,34.9319],[127.5796,34.9119],[127.5796,34.8956],[127.5903,34.8781],[127.604,34.8543],[127.6223,34.8343],[127.6375,34.8255],[127.6482,34.8142],[127.6588,34.8105],[127.6726,34.8167],[127.7015,34.8405],[127.7229,34.843],[127.7411,34.8393],[127.7594,34.8393],[127.7777,34.8481],[127.7777,34.828],[127.7731,34.8142],[127.7625,34.7854],[127.7518,34.7365],[127.7442,34.724],[127.7091,34.7139],[127.6802,34.7265],[127.6588,34.729],[127.6406,34.6951],[127.6375,34.6989],[127.6329,34.6989],[127.6329,34.6976],[127.6253,34.6951],[127.6375,34.6838],[127.6406,34.6688],[127.6482,34.6248],[127.6436,34.6161],[127.6329,34.6211],[127.6146,34.6349],[127.5933,34.6387],[127.575,34.6449],[127.5643,34.66],[127.5582,34.6826],[127.5643,34.7039],[127.5796,34.724],[127.5872,34.7453],[127.5826,34.7616],[127.575,34.7704],[127.5582,34.7992],[127.5537,34.8005],[127.5506,34.8017],[127.543,34.8017],[127.54,34.8067],[127.54,34.8117],[127.54,34.8167],[127.543,34.8205],[127.5293,34.8481],[127.5247,34.8581],[127.5247,34.8631],[127.5293,34.8731],[127.5323,34.8781],[127.5293,34.8831],[127.5247,34.8881],[127.5186,34.8906],[127.5186,34.8844],[127.514,34.8831],[127.4973,34.8481],[127.4897,34.8393],[127.4851,34.838],[127.482,34.838],[127.4455,34.828],[127.4287,34.8255],[127.3845,34.8255],[127.3677,34.823],[127.3814,34.8142],[127.4058,34.8042],[127.4287,34.7992],[127.4287,34.7917],[127.3845,34.7817],[127.3632,34.7716],[127.3601,34.7578],[127.3708,34.7516],[127.3891,34.7578],[127.3997,34.7553],[127.4058,34.7453],[127.4028,34.7415],[127.3997,34.7415],[127.3952,34.7378],[127.4104,34.6989],[127.4394,34.6776],[127.4683,34.66],[127.4897,34.6349],[127.482,34.6361],[127.4638,34.6361],[127.4577,34.6349],[127.4973,34.6211],[127.5034,34.6098],[127.508,34.5897],[127.4973,34.5821],[127.4851,34.5746],[127.4683,34.5759],[127.4577,34.5721],[127.4104,34.596],[127.3952,34.5997],[127.3814,34.5972],[127.3677,34.5922],[127.3525,34.5846],[127.3449,34.5759],[127.3494,34.5721],[127.3601,34.552],[127.3738,34.5507],[127.3845,34.5457],[127.4211,34.5532],[127.4424,34.5382],[127.3952,34.5029],[127.3784,34.4828],[127.3601,34.4891],[127.3312,34.4728],[127.3342,34.4539],[127.3449,34.4438],[127.3205,34.4426],[127.2763,34.4879],[127.2626,34.5118],[127.226,34.5457],[127.2153,34.5432],[127.1757,34.5256],[127.1803,34.5143],[127.1833,34.5118],[127.165,34.5168],[127.1513,34.518],[127.1361,34.5256],[127.13,34.5382],[127.1254,34.5532],[127.133,34.562],[127.1544,34.5721],[127.162,34.5771],[127.1833,34.5997],[127.194,34.6211],[127.2016,34.6299],[127.2153,34.6349],[127.2153,34.6186],[127.2123,34.6022],[127.1986,34.5721],[127.226,34.5746],[127.2489,34.5821],[127.2656,34.5997],[127.2626,34.6286],[127.2595,34.6399],[127.2519,34.6462],[127.2443,34.6537],[127.2443,34.6688],[127.2489,34.6776],[127.2763,34.7039],[127.2885,34.6989],[127.2946,34.6926],[127.2991,34.6851],[127.2915,34.6751],[127.2991,34.6625],[127.3052,34.6537],[127.3159,34.65],[127.3342,34.655],[127.3388,34.6625],[127.3525,34.6851],[127.3601,34.6951],[127.3449,34.7139],[127.3418,34.7315],[127.3342,34.739],[127.3159,34.7277],[127.2946,34.719],[127.2763,34.7328],[127.2519,34.7654],[127.2382,34.7466],[127.2153,34.7039],[127.2016,34.6889],[127.1864,34.6851],[127.1757,34.6851],[127.1513,34.6889],[127.1406,34.6851],[127.13,34.6788],[127.1117,34.6587],[127.101,34.6537],[127.0644,34.6349],[127.0461,34.6236],[127.0324,34.6161],[127.0218,34.6148],[127.0141,34.611],[127.0111,34.6022],[127.0111,34.5909],[127.0111,34.5796],[127.0035,34.5708],[126.9958,34.562],[126.9898,34.552],[126.9958,34.5382],[126.9425,34.4941],[126.9425,34.4526],[126.9349,34.4451],[126.9059,34.4577],[126.8998,34.4476],[126.8953,34.4388],[126.8953,34.4275],[126.9029,34.4149],[126.8892,34.4187],[126.8602,34.435],[126.8236,34.4451],[126.813,34.4489],[126.8053,34.469],[126.8099,34.5206],[126.8053,34.5382],[126.813,34.552],[126.8099,34.5671],[126.8023,34.5809],[126.7916,34.5872],[126.7809,34.5846],[126.7703,34.5759],[126.7627,34.5658],[126.7596,34.5557],[126.7627,34.5419],[126.7703,34.5306],[126.7703,34.5218],[126.7367,34.513],[126.7413,34.5017],[126.7657,34.4778],[126.7261,34.4589],[126.7124,34.4476],[126.7261,34.4438],[126.7306,34.44],[126.7306,34.435],[126.7306,34.43],[126.7261,34.4287],[126.72,34.43],[126.7124,34.4338],[126.7078,34.435],[126.6941,34.4338],[126.691,34.4287],[126.691,34.4224],[126.6864,34.4124],[126.6758,34.4086],[126.6468,34.4023],[126.6362,34.3935],[126.6331,34.3859],[126.6072,34.3191],[126.6072,34.3103],[126.6072,34.299],[126.5828,34.3015],[126.5356,34.2902],[126.5249,34.2914],[126.5249,34.304],[126.5325,34.3267],[126.5325,34.3393],[126.5218,34.3456],[126.5112,34.3481],[126.4822,34.3481],[126.4822,34.3532],[126.4883,34.3595],[126.4883,34.3632],[126.4929,34.3784],[126.4959,34.3796],[126.5005,34.3784],[126.5036,34.3796],[126.5173,34.4023],[126.5218,34.4124],[126.5173,34.4224],[126.5112,34.4249],[126.5036,34.4275],[126.4883,34.4287],[126.4776,34.4325],[126.4776,34.4375],[126.4822,34.4426],[126.4822,34.4438],[126.4822,34.4551],[126.4883,34.4677],[126.4853,34.474],[126.4715,34.4715],[126.4746,34.4941],[126.4929,34.5067],[126.5218,34.5118],[126.5462,34.5118],[126.5401,34.5206],[126.5356,34.5256],[126.5249,34.5306],[126.5173,34.5319],[126.5325,34.5419],[126.5432,34.552],[126.5432,34.5608],[126.5325,34.5671],[126.5249,34.5658],[126.5173,34.5557],[126.5112,34.552],[126.5036,34.552],[126.4883,34.5583],[126.4822,34.5583],[126.4776,34.5557],[126.4746,34.5482],[126.4715,34.5382],[126.4609,34.5369],[126.4533,34.5369],[126.4426,34.5382],[126.4213,34.5382],[126.4106,34.5369],[126.3953,34.5319],[126.3923,34.5482],[126.3847,34.557],[126.3588,34.5671],[126.3588,34.5708],[126.3557,34.5771],[126.3481,34.5821],[126.345,34.5759],[126.345,34.5721],[126.3374,34.5696],[126.3268,34.5671],[126.3237,34.5708],[126.3024,34.5859],[126.2978,34.5872],[126.2947,34.5972],[126.2978,34.5997],[126.3024,34.601],[126.3054,34.6073],[126.3085,34.6022],[126.3191,34.6022],[126.3268,34.6073],[126.3237,34.6186],[126.2947,34.6286],[126.2734,34.6399],[126.2734,34.67],[126.281,34.7001],[126.2917,34.724],[126.2947,34.7315],[126.2917,34.7415],[126.2947,34.7478],[126.3024,34.7516],[126.3085,34.7516],[126.3161,34.7503],[126.3237,34.7466],[126.3313,34.734],[126.3588,34.6951],[126.3527,34.6851],[126.3481,34.6751],[126.3481,34.665],[126.3527,34.655],[126.374,34.6073],[126.3847,34.601],[126.435,34.5947],[126.4563,34.5821],[126.467,34.5821],[126.4746,34.5997],[126.4639,34.5997],[126.4609,34.601],[126.438,34.6047],[126.4273,34.6186],[126.4167,34.6286],[126.4213,34.6512],[126.406,34.6487],[126.3984,34.6349],[126.3877,34.6349],[126.3847,34.6537],[126.3816,34.6776],[126.3877,34.6926],[126.3816,34.7089],[126.4106,34.7114],[126.4533,34.7039],[126.4563,34.6951],[126.4533,34.6838],[126.4533,34.6788],[126.4533,34.6751],[126.4563,34.6688],[126.467,34.6638],[126.4746,34.6562],[126.4853,34.65],[126.5036,34.6437],[126.5142,34.6349],[126.5279,34.6261],[126.5401,34.6211],[126.5432,34.6261],[126.5218,34.6487],[126.5356,34.65],[126.5539,34.6412],[126.5782,34.6311],[126.6072,34.6236],[126.6255,34.6286],[126.6072,34.6311],[126.5904,34.6399],[126.5569,34.6625],[126.5645,34.6688],[126.5432,34.6826],[126.5112,34.7165],[126.4929,34.724],[126.467,34.7277],[126.438,34.7265],[126.4213,34.7378],[126.3953,34.7315],[126.371,34.7378],[126.3664,34.7478],[126.3816,34.7616],[126.3953,34.7666],[126.4243,34.7629],[126.4639,34.7766],[126.5112,34.7503],[126.5249,34.7516],[126.5279,34.7503],[126.5325,34.7478],[126.5325,34.7466],[126.5401,34.7453],[126.5356,34.7629],[126.5356,34.7817],[126.5462,34.7942],[126.5721,34.7992],[126.6179,34.7867],[126.6407,34.7867],[126.6331,34.7992],[126.6514,34.8055],[126.6575,34.8067],[126.6697,34.8067],[126.6544,34.8205],[126.6331,34.8243],[126.5782,34.8205],[126.5828,34.8293],[126.5828,34.8355],[126.5782,34.843],[126.5782,34.8531],[126.5828,34.8593],[126.5904,34.8643],[126.5935,34.8718],[126.5935,34.8819],[126.5859,34.8969],[126.5721,34.9006],[126.5569,34.8931],[126.5462,34.8819],[126.5432,34.8731],[126.5508,34.8568],[126.5539,34.8481],[126.5508,34.8455],[126.5401,34.8255],[126.5279,34.7917],[126.5173,34.7804],[126.4959,34.7779],[126.4959,34.7817],[126.4883,34.7854],[126.4959,34.7904],[126.5005,34.8005],[126.5036,34.8067],[126.4883,34.8117],[126.4822,34.8092],[126.4715,34.8017],[126.4609,34.7992],[126.4319,34.8042],[126.4243,34.8005],[126.4243,34.7904],[126.4106,34.7904],[126.3877,34.7854],[126.3771,34.7892],[126.374,34.8005],[126.3816,34.8092],[126.403,34.8255],[126.4106,34.8355],[126.4136,34.843],[126.4136,34.8493],[126.4136,34.8581],[126.4136,34.8731],[126.4167,34.8794],[126.4273,34.8881],[126.4167,34.8969],[126.406,34.9131],[126.3984,34.9344],[126.403,34.9494],[126.4136,34.9607],[126.435,34.9707],[126.438,34.9794],[126.4136,34.9844],[126.403,34.9832],[126.3953,34.9782],[126.3923,34.9732],[126.3847,34.9707],[126.374,34.9682],[126.3771,34.9582],[126.3816,34.9457],[126.3816,34.9357],[126.3664,34.9257],[126.3481,34.9257],[126.3313,34.9294],[126.3191,34.9357],[126.3268,34.9419],[126.3344,34.9419],[126.3237,34.9494],[126.3161,34.9544],[126.3085,34.9632],[126.3054,34.9707],[126.3161,34.9757],[126.3268,34.9757],[126.3527,34.9707],[126.3481,34.9932],[126.3771,35.0157],[126.371,35.0369],[126.342,35.0694],[126.3237,35.0832],[126.3054,35.0881],[126.313,35.0644],[126.3054,35.0519],[126.2917,35.0519],[126.2765,35.0669],[126.2871,35.0782],[126.2627,35.1044],[126.2582,35.1219],[126.2734,35.1356],[126.2917,35.1381],[126.3085,35.1306],[126.3191,35.1144],[126.3313,35.1219],[126.3374,35.1331],[126.345,35.1555],[126.3527,35.1431],[126.3557,35.1356],[126.3527,35.1169],[126.3481,35.1069],[126.345,35.1019],[126.3481,35.0944],[126.3527,35.0944],[126.3557,35.0956],[126.3588,35.0944],[126.3633,35.0807],[126.3664,35.0757],[126.371,35.0719],[126.3816,35.0669],[126.3923,35.0644],[126.406,35.0644],[126.4136,35.0607],[126.4106,35.0494],[126.4106,35.0369],[126.4167,35.0269],[126.4273,35.0182],[126.4533,35.0657],[126.4563,35.0807],[126.4563,35.0994],[126.4487,35.1044],[126.4319,35.1094],[126.4243,35.1131],[126.4167,35.1181],[126.406,35.1406],[126.374,35.1718],[126.3664,35.1855],[126.371,35.1905],[126.374,35.1955],[126.3771,35.2004],[126.3816,35.2117],[126.371,35.2167],[126.3664,35.2241],[126.3664,35.2378],[126.3557,35.2354],[126.342,35.2329],[126.313,35.2316],[126.3237,35.2428],[126.342,35.2466],[126.3633,35.2478],[126.3816,35.2516],[126.374,35.2528],[126.371,35.2553],[126.3664,35.2565],[126.3588,35.259],[126.3664,35.269],[126.371,35.274],[126.3771,35.2765],[126.3847,35.2815],[126.3877,35.2902],[126.3847,35.2976],[126.3816,35.3039],[126.3816,35.3113],[126.3847,35.3263],[126.3923,35.3412],[126.4136,35.3686],[126.4213,35.3636],[126.435,35.3475],[126.4533,35.3425],[126.4639,35.345],[126.4609,35.3512],[126.4273,35.3823],[126.4213,35.3935],[126.4273,35.4171],[126.4456,35.4457],[126.4746,35.4967],[126.4959,35.524],[126.5279,35.5339],[126.5645,35.5401],[126.5965,35.5401],[126.6118,35.5513],[126.6255,35.5675],[126.6468,35.5712],[126.6651,35.5563],[126.6834,35.5377],[126.6971,35.5339],[126.6834,35.5712],[126.6727,35.5873],[126.6575,35.5948],[126.5173,35.5761],[126.467,35.601],[126.4715,35.6283],[126.4715,35.6382],[126.4959,35.6493],[126.5142,35.6642],[126.5325,35.6828],[126.5645,35.6964],[126.6011,35.7126],[126.6301,35.7448],[126.6331,35.7732],[126.6468,35.7819],[126.6575,35.7869],[126.6651,35.7918],[126.7017,35.7955],[126.7367,35.7906],[126.7596,35.777],[126.7733,35.7732],[126.784,35.7584],[126.7916,35.767],[126.7916,35.7794],[126.7947,35.7906],[126.7809,35.7992],[126.7733,35.8042],[126.752,35.8128],[126.7306,35.824],[126.7124,35.8351],[126.7047,35.8401],[126.7078,35.8487],[126.7154,35.8561],[126.723,35.8611],[126.7337,35.8636],[126.787,35.8611],[126.8023,35.8611],[126.8099,35.8648],[126.816,35.8747],[126.816,35.8821],[126.8236,35.8871],[126.8373,35.8883],[126.8419,35.892],[126.8343,35.9007],[126.8236,35.9068],[126.813,35.9105],[126.8099,35.9093],[126.7367,35.8858],[126.7124,35.8834],[126.6651,35.8871],[126.6148,35.8883],[126.6148,35.9068],[126.6118,35.9316],[126.6041,35.9365],[126.5721,35.9439],[126.5279,35.939],[126.5249,35.9698],[126.6148,35.9785],[126.6651,35.9834],[126.7154,35.9847],[126.7306,35.9933],[126.7474,35.9884],[126.7703,35.997],[126.8053,36.0205],[126.8526,36.0353],[126.8739,36.0476],[126.8739,36.0612],[126.816,36.0464],[126.7947,36.0402],[126.7733,36.0303],[126.7596,36.0168],[126.7413,36.0106],[126.7154,36.0069],[126.6971,35.9982],[126.6804,36.0057],[126.6758,36.0118],[126.6727,36.0205],[126.6697,36.034],[126.6621,36.0439],[126.6438,36.0624],[126.6331,36.0748],[126.6468,36.0846],[126.6438,36.0896],[126.6301,36.0945],[126.6148,36.0982],[126.5935,36.1302],[126.5752,36.1376],[126.5615,36.1302],[126.5569,36.1302],[126.5539,36.1401],[126.5325,36.1524],[126.5142,36.1512],[126.5066,36.1315],[126.5036,36.1253],[126.4959,36.1302],[126.5005,36.1586],[126.5356,36.1721],[126.5645,36.1808],[126.6072,36.1709],[126.5935,36.1906],[126.5828,36.198],[126.5721,36.2041],[126.5645,36.2066],[126.5569,36.2029],[126.5539,36.2041],[126.5432,36.2115],[126.5401,36.2177],[126.5615,36.2657],[126.5721,36.2854],[126.5859,36.294],[126.5752,36.3038],[126.5325,36.3161],[126.5173,36.321],[126.5325,36.3333],[126.5752,36.3419],[126.5859,36.3518],[126.5782,36.3653],[126.5645,36.369],[126.5325,36.369],[126.5249,36.3739],[126.5112,36.3849],[126.5036,36.3911],[126.5036,36.3972],[126.5173,36.3972],[126.5036,36.4193],[126.5218,36.4279],[126.5401,36.4328],[126.5615,36.4549],[126.6011,36.4648],[126.6224,36.4733],[126.5615,36.4733],[126.5508,36.4672],[126.5279,36.4414],[126.5112,36.4378],[126.5005,36.4476],[126.4929,36.4672],[126.4853,36.4856],[126.4853,36.4967],[126.5066,36.5151],[126.5173,36.5285],[126.5142,36.5347],[126.4959,36.5273],[126.4853,36.5347],[126.4776,36.5396],[126.4746,36.5396],[126.4715,36.5494],[126.4746,36.558],[126.4715,36.5665],[126.467,36.5837],[126.4609,36.5923],[126.4609,36.5947],[126.4746,36.5972],[126.4959,36.6033],[126.5142,36.6033],[126.5173,36.6156],[126.5249,36.6254],[126.5142,36.6339],[126.5036,36.6376],[126.4883,36.6486],[126.4959,36.6609],[126.5112,36.6694],[126.5036,36.6841],[126.4776,36.6878],[126.4746,36.7049],[126.4822,36.7171],[126.5036,36.7196],[126.4929,36.7318],[126.4853,36.7392],[126.4822,36.7477],[126.4746,36.7404],[126.4609,36.7282],[126.4456,36.7233],[126.4426,36.7171],[126.4426,36.7098],[126.4487,36.7],[126.4487,36.6829],[126.4426,36.6645],[126.4456,36.6376],[126.438,36.6156],[126.4273,36.607],[126.4106,36.6168],[126.3877,36.6192],[126.371,36.629],[126.374,36.6829],[126.3816,36.7012],[126.371,36.7061],[126.374,36.7318],[126.3633,36.7416],[126.345,36.7404],[126.3374,36.7269],[126.3344,36.711],[126.3268,36.7],[126.3054,36.7],[126.3161,36.6829],[126.3344,36.6609],[126.3374,36.6437],[126.3268,36.6351],[126.3313,36.629],[126.345,36.6107],[126.3313,36.607],[126.3191,36.6021],[126.3085,36.5935],[126.2978,36.5813],[126.2978,36.5898],[126.2978,36.5972],[126.2947,36.6033],[126.2917,36.6107],[126.3054,36.6339],[126.2765,36.6731],[126.2841,36.6927],[126.2765,36.7196],[126.2582,36.711],[126.2338,36.6841],[126.2124,36.678],[126.2018,36.6755],[126.1911,36.6731],[126.1835,36.6731],[126.1682,36.678],[126.1652,36.6829],[126.1622,36.6927],[126.1622,36.7012],[126.1652,36.7061],[126.2079,36.7049],[126.2155,36.711],[126.2155,36.7269],[126.2048,36.7416],[126.1911,36.7489],[126.1759,36.7526],[126.1622,36.7612],[126.1576,36.7489],[126.1545,36.7233],[126.1469,36.711],[126.1362,36.7037],[126.1332,36.711],[126.1332,36.7367],[126.1332,36.7612],[126.1362,36.7673],[126.1622,36.7942],[126.1652,36.8027],[126.1682,36.8162],[126.1728,36.8064],[126.1759,36.7978],[126.1835,36.7893],[126.1911,36.7807],[126.1942,36.7844],[126.2018,36.7844],[126.2079,36.7832],[126.2155,36.7807],[126.2079,36.7929],[126.1972,36.8076],[126.2231,36.8015],[126.2368,36.8052],[126.2445,36.8162],[126.2185,36.8186],[126.2018,36.8235],[126.2018,36.8345],[126.2155,36.8565],[126.1942,36.8723],[126.1972,36.8858],[126.2124,36.898],[126.2368,36.9041],[126.2292,36.8784],[126.2338,36.8723],[126.2475,36.8699],[126.2734,36.8699],[126.281,36.8736],[126.2841,36.8845],[126.2871,36.9065],[126.2841,36.9358],[126.2871,36.9614],[126.313,36.9663],[126.3085,36.9529],[126.3085,36.9309],[126.3161,36.909],[126.3268,36.8821],[126.3191,36.8736],[126.313,36.865],[126.3054,36.8565],[126.3054,36.8467],[126.313,36.8333],[126.313,36.8284],[126.3054,36.8247],[126.2871,36.8149],[126.2841,36.8113],[126.2871,36.8027],[126.2917,36.7942],[126.2947,36.7893],[126.3024,36.7905],[126.3191,36.8052],[126.3313,36.8052],[126.3588,36.7893],[126.3374,36.8247],[126.3313,36.8467],[126.342,36.8565],[126.3588,36.8406],[126.371,36.8345],[126.374,36.8467],[126.3771,36.8504],[126.3877,36.854],[126.4106,36.8565],[126.4106,36.8638],[126.3984,36.8638],[126.3816,36.8699],[126.3816,36.8772],[126.406,36.8809],[126.4213,36.8992],[126.4243,36.9224],[126.4136,36.9382],[126.406,36.9419],[126.3816,36.9419],[126.3664,36.9468],[126.3557,36.9553],[126.3557,36.9651],[126.3588,36.9687],[126.374,36.9602],[126.3816,36.9748],[126.374,36.9833],[126.3557,36.987],[126.3374,36.987],[126.345,36.9943],[126.3557,37.0004],[126.3664,37.0004],[126.3771,36.9968],[126.3877,36.9907],[126.3953,36.9907],[126.3984,36.9919],[126.3953,37.0004],[126.3953,37.0077],[126.4319,37.0089],[126.4487,37.0041],[126.4563,36.9907],[126.4533,36.9821],[126.4426,36.9736],[126.435,36.9614],[126.4426,36.9468],[126.4487,36.9529],[126.4639,36.959],[126.4715,36.9565],[126.4746,36.9504],[126.4776,36.9419],[126.4822,36.9358],[126.4822,36.9297],[126.4822,36.926],[126.4715,36.9175],[126.4715,36.9114],[126.4715,36.8675],[126.4715,36.854],[126.4822,36.8455],[126.4883,36.8418],[126.4883,36.8467],[126.4959,36.8699],[126.5142,36.9199],[126.5173,36.9419],[126.5218,36.948],[126.5356,36.9419],[126.5539,36.926],[126.5615,36.9138],[126.5645,36.9041],[126.5721,36.8992],[126.5859,36.898],[126.5859,36.9041],[126.5782,36.9114],[126.5721,36.9309],[126.5615,36.9419],[126.5005,36.9943],[126.4959,36.9968],[126.5005,37.0077],[126.5112,37.0077],[126.5173,36.9992],[126.5356,36.9821],[126.5432,36.9772],[126.5539,36.9736],[126.5645,36.9736],[126.5752,36.9772],[126.5752,36.9833],[126.5676,36.9907],[126.5539,36.9943],[126.5356,37.0004],[126.5142,37.0162],[126.5066,37.0394],[126.5036,37.0552],[126.5218,37.0552],[126.5401,37.0491],[126.5539,37.0394],[126.5721,37.0272],[126.5935,37.0175],[126.6011,37.0102],[126.6148,37.0028],[126.6301,36.9955],[126.6407,36.9821],[126.6362,36.9687],[126.6255,36.9602],[126.6255,36.9529],[126.6362,36.9382],[126.6362,36.9285],[126.6331,36.9114],[126.6468,36.9175],[126.6514,36.9248],[126.6514,36.9333],[126.6468,36.959],[126.6544,36.9663],[126.6575,36.9748],[126.6697,36.9882],[126.6834,36.9943],[126.7017,36.9955],[126.72,36.9919],[126.7367,36.987],[126.7627,36.9821],[126.7764,36.9736],[126.7977,36.9553],[126.8023,36.9346],[126.784,36.8906],[126.7977,36.898],[126.816,36.9163],[126.8267,36.9175],[126.8343,36.909],[126.8373,36.8955],[126.8419,36.8675],[126.8373,36.8601],[126.8343,36.8467],[126.8343,36.8381],[126.8343,36.832],[126.845,36.8198],[126.8526,36.7881],[126.8495,36.7795],[126.8343,36.7746],[126.8343,36.7661],[126.8419,36.7612],[126.845,36.7575],[126.8526,36.7538],[126.8602,36.7758],[126.8709,36.7893],[126.8739,36.8052],[126.8663,36.8284],[126.8892,36.8247],[126.9059,36.821],[126.8739,36.8516],[126.8632,36.8687],[126.8846,36.8772],[126.9029,36.8784],[126.9456,36.8919],[126.9791,36.9126],[126.9928,36.9175],[127.0035,36.9285],[127.0111,36.9529],[127.0065,36.9565],[127.0004,36.9651],[126.9958,36.9663],[127.0035,36.9699],[127.0065,36.9724],[127.0141,36.9724],[127.0294,36.9772],[127.0355,36.9785],[127.0431,36.9821],[127.0461,36.9943],[126.9852,36.9809],[126.9745,36.9699],[126.9791,36.9394],[126.9715,36.9309],[126.9501,36.926],[126.9166,36.9297],[126.877,36.948],[126.8419,36.9748],[126.8267,37.0028],[126.8892,37.0077],[126.8892,37.0138],[126.8846,37.0162],[126.8739,37.0211],[126.8846,37.0223],[126.8953,37.0223],[126.9059,37.0187],[126.9135,37.0138],[126.9105,37.0333],[126.8953,37.0491],[126.8846,37.0698],[126.8953,37.0954],[126.8815,37.1003],[126.8739,37.0905],[126.8663,37.0747],[126.8663,37.0577],[126.8632,37.0406],[126.8526,37.0382],[126.8419,37.0443],[126.8236,37.0406],[126.8053,37.0382],[126.7596,37.0491],[126.7596,37.0601],[126.755,37.0698],[126.7596,37.0832],[126.755,37.1003],[126.7657,37.1173],[126.7809,37.1319],[126.7977,37.1392],[126.813,37.1441],[126.8419,37.1441],[126.8663,37.1514],[126.8739,37.1575],[126.8739,37.1769],[126.8663,37.1793],[126.8526,37.1733],[126.8343,37.1599],[126.8206,37.1611],[126.8099,37.1648],[126.8053,37.1733],[126.8053,37.1842],[126.7809,37.1769],[126.7627,37.1648],[126.7261,37.1343],[126.72,37.127],[126.7047,37.1234],[126.6941,37.1258],[126.691,37.1307],[126.691,37.1392],[126.6941,37.1477],[126.7124,37.1648],[126.6804,37.1599],[126.6727,37.1611],[126.6697,37.1769],[126.6727,37.1866],[126.6864,37.1915],[126.7017,37.1951],[126.7124,37.2],[126.723,37.2134],[126.72,37.217],[126.6941,37.2134],[126.6834,37.2182],[126.6758,37.2292],[126.6697,37.2425],[126.6621,37.2535],[126.6651,37.2559],[126.6697,37.2571],[126.6758,37.262],[126.6834,37.2571],[126.6941,37.2571],[126.7124,37.262],[126.7306,37.2595],[126.7413,37.2523],[126.755,37.2486],[126.7703,37.2535],[126.7703,37.2438],[126.7703,37.2316],[126.7764,37.2231],[126.784,37.2207],[126.7947,37.2231],[126.8023,37.234],[126.8053,37.2535],[126.8236,37.2741],[126.8373,37.2729],[126.8526,37.2656],[126.8739,37.268],[126.8709,37.2765],[126.8632,37.2826],[126.8556,37.2863],[126.845,37.2875],[126.8312,37.2875],[126.8267,37.296],[126.8099,37.2984],[126.7977,37.2948],[126.787,37.2948],[126.7703,37.2984],[126.7367,37.3069],[126.6941,37.3336],[126.691,37.3433],[126.7078,37.3676],[126.723,37.3773],[126.72,37.3845],[126.6697,37.3894],[126.6438,37.3639],[126.6179,37.3797],[126.6301,37.3979],[126.6438,37.4148],[126.6331,37.4245],[126.6148,37.433],[126.6011,37.4403],[126.6011,37.4585],[126.5965,37.4718],[126.6072,37.4851],[126.6362,37.4924],[126.6438,37.496],[126.6468,37.5045],[126.6331,37.5081],[126.6301,37.4996],[126.6118,37.4972],[126.6041,37.5081],[126.6041,37.5263],[126.6072,37.5493],[126.6041,37.5577],[126.5935,37.5734],[126.5859,37.5855],[126.5752,37.5988],[126.5645,37.6073],[126.5645,37.6206],[126.5615,37.6411],[126.5508,37.6726],[126.5356,37.7558],[126.5401,37.7691],[126.5508,37.7715],[126.6072,37.7546],[126.6255,37.7571],[126.6407,37.7631],[126.6514,37.7655],[126.6651,37.7571],[126.6697,37.7462],[126.6727,37.7293],[126.6727,37.7088],[126.6651,37.6967],[126.6651,37.6726],[126.6941,37.6532],[126.7337,37.6399],[126.7596,37.6375],[126.7413,37.6544],[126.6834,37.687],[126.6971,37.7221],[126.7047,37.7438],[126.7017,37.7571],[126.691,37.7739],[126.691,37.7824],[126.6864,37.7944],[126.6941,37.8137],[126.7047,37.8306],[126.6971,37.8366],[126.6864,37.8366],[126.6727,37.8282],[126.6651,37.9149],[126.6697,37.939],[126.6804,37.945],[126.7017,37.9474],[126.7261,37.9558],[126.7657,37.9787],[126.8526,38.0821],[126.8663,38.0977],[126.9059,38.1205],[126.9242,38.1361],[126.9425,38.1745],[126.9562,38.2021],[126.9669,38.2141],[126.9745,38.2189],[127.0294,38.256],[127.0934,38.286],[127.162,38.3087],[127.226,38.3135],[127.2549,38.3099],[127.3814,38.3183],[127.4744,38.2968],[127.5034,38.298],[127.5643,38.3135],[127.7549,38.3267],[127.7671,38.3219],[127.7777,38.3063],[127.7914,38.298],[127.8021,38.2956],[127.8707,38.3051],[127.9759,38.3015],[128.0429,38.3051],[128.1115,38.3231],[128.177,38.3578],[128.2273,38.4009],[128.2517,38.4272],[128.27,38.4535],[128.2853,38.4857],[128.2883,38.5216],[128.2807,38.555],[128.2776,38.5717],[128.2853,38.586],[128.3096,38.6027],[128.3676,38.6265]]],[[[128.7516,34.8681],[128.7486,34.8568],[128.7455,34.843],[128.7379,34.8355],[128.7242,34.8405],[128.7273,34.828],[128.741,34.8042],[128.7455,34.7892],[128.7379,34.7867],[128.7196,34.7917],[128.7013,34.8005],[128.6876,34.8067],[128.6846,34.7917],[128.6846,34.7854],[128.6663,34.7679],[128.6587,34.7553],[128.6739,34.7478],[128.6876,34.7415],[128.6952,34.734],[128.68,34.7227],[128.6084,34.7039],[128.587,34.7039],[128.619,34.724],[128.6053,34.729],[128.6007,34.7378],[128.6007,34.7503],[128.6084,34.7654],[128.5764,34.7516],[128.5657,34.7566],[128.5611,34.7679],[128.5611,34.7804],[128.5687,34.7854],[128.5947,34.7904],[128.6007,34.8005],[128.6007,34.8155],[128.6084,34.8343],[128.5947,34.8405],[128.5825,34.8305],[128.5474,34.8167],[128.5322,34.8067],[128.5184,34.8205],[128.5047,34.8343],[128.4925,34.8481],[128.4895,34.8681],[128.4971,34.8781],[128.5108,34.8906],[128.5261,34.8969],[128.5398,34.9019],[128.5764,34.9081],[128.587,34.9081],[128.6007,34.9019],[128.616,34.8956],[128.6297,34.8906],[128.648,34.8881],[128.648,34.8956],[128.6297,34.9056],[128.619,34.9207],[128.616,34.9369],[128.6114,34.9519],[128.6267,34.9519],[128.6952,34.9844],[128.6846,35.0032],[128.6907,35.0219],[128.7059,35.0319],[128.7242,35.0257],[128.7273,35.0169],[128.7273,35.0082],[128.7196,34.9707],[128.7196,34.9644],[128.7273,34.9519],[128.7303,34.9444],[128.7379,34.9344],[128.7379,34.9207],[128.7349,34.9081],[128.7166,34.8743],[128.7379,34.8794],[128.7455,34.8869],[128.7486,34.8844],[128.7516,34.8681]]],[[[126.9501,33.4756],[126.9562,33.4616],[126.9532,33.4591],[126.9425,33.4552],[126.9349,33.4489],[126.9349,33.4438],[126.9425,33.4336],[126.9425,33.4285],[126.9395,33.4234],[126.9318,33.4132],[126.9273,33.4094],[126.9105,33.3928],[126.877,33.3712],[126.8663,33.3508],[126.8526,33.3291],[126.8495,33.3202],[126.845,33.3062],[126.8206,33.3049],[126.8099,33.301],[126.784,33.3036],[126.7444,33.2781],[126.6438,33.2615],[126.6118,33.2373],[126.5676,33.2309],[126.5249,33.2334],[126.4746,33.2258],[126.4319,33.236],[126.3374,33.236],[126.3085,33.2245],[126.2917,33.1964],[126.2734,33.1951],[126.2582,33.2015],[126.2338,33.2322],[126.2048,33.2411],[126.1759,33.2666],[126.1652,33.2985],[126.1835,33.3393],[126.2018,33.3635],[126.2079,33.3724],[126.2445,33.389],[126.2734,33.4336],[126.3024,33.4387],[126.313,33.4616],[126.3588,33.4756],[126.4639,33.4998],[126.4883,33.5176],[126.5859,33.5265],[126.6514,33.5494],[126.6697,33.5469],[126.7474,33.5583],[126.7947,33.5621],[126.8267,33.557],[126.8373,33.5418],[126.8526,33.5329],[126.9029,33.5163],[126.9166,33.5049],[126.9242,33.4743],[126.9349,33.4616],[126.9395,33.4667],[126.9456,33.4705],[126.9501,33.4756]]],[[[128.0719,34.8142],[128.0765,34.8017],[128.0765,34.7917],[128.0688,34.7817],[128.0658,34.7679],[128.0688,34.7478],[128.0688,34.7365],[128.0612,34.7315],[128.0536,34.7277],[128.0612,34.7064],[128.0582,34.6951],[128.0429,34.6939],[128.0292,34.7001],[128.014,34.7077],[127.9926,34.7001],[127.9789,34.6976],[127.9682,34.7177],[127.9576,34.7578],[127.9393,34.7654],[127.9286,34.7578],[127.9179,34.7415],[127.9134,34.719],[127.9103,34.7114],[127.8966,34.7114],[127.8814,34.7165],[127.8707,34.719],[127.8631,34.729],[127.8631,34.7365],[127.8631,34.7453],[127.86,34.7578],[127.8341,34.833],[127.8311,34.8493],[127.8311,34.8681],[127.8417,34.8844],[127.8524,34.8906],[127.86,34.8919],[127.8631,34.8956],[127.8707,34.9169],[127.8737,34.9219],[127.892,34.9344],[127.9073,34.9394],[127.921,34.9344],[127.9317,34.9257],[127.9423,34.9119],[127.9393,34.8981],[127.9317,34.8869],[127.9073,34.8681],[127.9134,34.8593],[127.9179,34.843],[127.921,34.8343],[127.9317,34.8293],[127.953,34.823],[127.9637,34.8055],[127.9865,34.8092],[128.0079,34.8155],[128.0323,34.8205],[128.0658,34.8155],[128.0719,34.8142]]],[[[126.3847,34.4967],[126.3847,34.4828],[126.3816,34.4677],[126.3771,34.4526],[126.3557,34.4174],[126.3481,34.4073],[126.3374,34.4023],[126.3374,34.4048],[126.3191,34.4187],[126.313,34.4224],[126.313,34.4149],[126.3085,34.3998],[126.2124,34.3557],[126.2018,34.3544],[126.1622,34.3506],[126.1469,34.3532],[126.1469,34.3607],[126.1515,34.3695],[126.1576,34.3746],[126.1622,34.3796],[126.1576,34.3859],[126.1286,34.4023],[126.1286,34.3796],[126.1073,34.3998],[126.118,34.4338],[126.1469,34.4614],[126.1759,34.4627],[126.1835,34.4841],[126.1911,34.4929],[126.2018,34.5017],[126.2124,34.5067],[126.2185,34.5067],[126.2262,34.5118],[126.2292,34.5256],[126.2414,34.513],[126.2582,34.513],[126.2734,34.5206],[126.2765,34.5356],[126.2688,34.5482],[126.2445,34.5633],[126.2521,34.5721],[126.2658,34.5746],[126.2841,34.5671],[126.2978,34.557],[126.3085,34.552],[126.313,34.5507],[126.313,34.5432],[126.3191,34.5369],[126.3268,34.5319],[126.3313,34.5331],[126.3527,34.5457],[126.3527,34.5369],[126.3847,34.4967]]],[[[126.5676,37.5142],[126.5721,37.5105],[126.5752,37.5057],[126.5782,37.5021],[126.5828,37.496],[126.5859,37.4912],[126.5828,37.4887],[126.5721,37.4839],[126.5676,37.4803],[126.5508,37.4766],[126.5432,37.4766],[126.5325,37.4742],[126.5112,37.4657],[126.4959,37.4572],[126.4883,37.4463],[126.4456,37.4209],[126.438,37.4233],[126.4273,37.4209],[126.4243,37.4233],[126.4213,37.4354],[126.4136,37.4379],[126.4106,37.4354],[126.406,37.4354],[126.403,37.4367],[126.406,37.4403],[126.403,37.4451],[126.3953,37.4451],[126.3923,37.4415],[126.3877,37.4379],[126.3816,37.4403],[126.371,37.4439],[126.374,37.4488],[126.374,37.4536],[126.3633,37.4621],[126.3588,37.4669],[126.3633,37.4742],[126.371,37.4754],[126.3771,37.4718],[126.4243,37.4972],[126.4563,37.5008],[126.4776,37.4996],[126.4959,37.5081],[126.5036,37.5311],[126.5173,37.5347],[126.5279,37.5263],[126.5356,37.5238],[126.5432,37.5214],[126.5462,37.519],[126.5539,37.519],[126.5569,37.5178],[126.5676,37.5142]]],[[[126.5112,37.5976],[126.5036,37.5976],[126.4959,37.5988],[126.4853,37.6073],[126.4776,37.6109],[126.4746,37.6109],[126.4715,37.6073],[126.467,37.6037],[126.4136,37.6025],[126.3953,37.6085],[126.374,37.6315],[126.406,37.6375],[126.4136,37.6411],[126.4213,37.6532],[126.4213,37.6581],[126.4136,37.6593],[126.4106,37.6665],[126.374,37.7184],[126.371,37.7269],[126.374,37.739],[126.374,37.786],[126.3771,37.7969],[126.3877,37.7993],[126.4106,37.8222],[126.4273,37.8258],[126.4456,37.8149],[126.4609,37.8017],[126.4746,37.7908],[126.5066,37.7776],[126.5218,37.7679],[126.5249,37.751],[126.5249,37.7438],[126.5173,37.7305],[126.5173,37.7233],[126.5218,37.7172],[126.5279,37.7039],[126.5325,37.6967],[126.5356,37.6593],[126.5325,37.6508],[126.5356,37.646],[126.5432,37.6363],[126.5462,37.6315],[126.5325,37.6254],[126.5218,37.6037],[126.5112,37.5976]]],[[[126.4106,36.4586],[126.4167,36.439],[126.4319,36.423],[126.435,36.4071],[126.4273,36.4107],[126.3816,36.4095],[126.3664,36.4107],[126.3633,36.4255],[126.371,36.4316],[126.3771,36.4365],[126.3816,36.4463],[126.3557,36.4328],[126.345,36.4378],[126.3481,36.4537],[126.3664,36.4733],[126.3588,36.4783],[126.3481,36.4672],[126.342,36.4746],[126.3313,36.4697],[126.3374,36.4954],[126.3344,36.531],[126.3268,36.5531],[126.3191,36.5813],[126.3268,36.5898],[126.345,36.6033],[126.3633,36.6082],[126.3771,36.5923],[126.3771,36.5849],[126.374,36.5776],[126.3664,36.5727],[126.3664,36.5665],[126.3847,36.5359],[126.3877,36.5261],[126.3847,36.5175],[126.3877,36.5101],[126.3984,36.5052],[126.4106,36.4942],[126.3877,36.4942],[126.3877,36.4868],[126.3953,36.4856],[126.4106,36.4783],[126.406,36.4733],[126.406,36.4684],[126.4106,36.4586]]],[[[126.2368,35.0457],[126.2414,35.0507],[126.2338,35.0519],[126.2079,35.0557],[126.2018,35.0594],[126.1942,35.0607],[126.1865,35.0607],[126.1835,35.0644],[126.1789,35.0669],[126.1728,35.0719],[126.1622,35.0931],[126.1682,35.1019],[126.1789,35.1044],[126.1942,35.1019],[126.2018,35.0956],[126.2124,35.0981],[126.2185,35.1031],[126.2262,35.0994],[126.2292,35.0944],[126.2338,35.0956],[126.2414,35.0956],[126.2414,35.0906],[126.2338,35.0844],[126.2262,35.0844],[126.2231,35.0807],[126.2231,35.0757],[126.2338,35.0657],[126.2414,35.0619],[126.2521,35.0619],[126.2582,35.0557],[126.2627,35.0457],[126.2658,35.0407],[126.2688,35.0319],[126.2658,35.0232],[126.2627,35.0207],[126.2582,35.0232],[126.2475,35.0257],[126.2414,35.0307],[126.2368,35.0369],[126.2368,35.0457]]],[[[127.0934,34.3431],[127.0964,34.3406],[127.101,34.3355],[127.0934,34.3343],[127.0858,34.338],[127.0751,34.3406],[127.069,34.338],[127.0721,34.3355],[127.0751,34.333],[127.069,34.3254],[127.0538,34.3154],[127.0431,34.3103],[127.04,34.3191],[127.0461,34.3254],[127.0538,34.3292],[127.0507,34.3343],[127.0294,34.338],[127.0294,34.3406],[127.0294,34.3456],[127.0218,34.3494],[127.0035,34.3506],[126.9958,34.3532],[126.9958,34.3544],[126.9958,34.3557],[127.0035,34.3582],[127.0111,34.3607],[127.0187,34.3695],[127.0294,34.3758],[127.0294,34.3796],[127.0324,34.3784],[127.04,34.3733],[127.0461,34.3645],[127.0507,34.3557],[127.0568,34.3532],[127.0721,34.3557],[127.0797,34.3582],[127.0858,34.3544],[127.0903,34.3494],[127.0934,34.3431]]],[[[126.7657,34.3065],[126.7703,34.3002],[126.7733,34.2902],[126.7733,34.2864],[126.7657,34.2889],[126.7627,34.2889],[126.752,34.2914],[126.7444,34.2965],[126.7413,34.2952],[126.7413,34.2902],[126.7337,34.2864],[126.7261,34.2902],[126.7124,34.2939],[126.6941,34.299],[126.691,34.3053],[126.7017,34.3116],[126.6971,34.3191],[126.691,34.3204],[126.6804,34.3191],[126.6651,34.3217],[126.6544,34.3267],[126.6468,34.3355],[126.6438,34.3456],[126.6438,34.3582],[126.6438,34.3708],[126.6514,34.3834],[126.6575,34.3935],[126.6697,34.3985],[126.6727,34.3985],[126.691,34.3998],[126.7017,34.396],[126.7124,34.391],[126.7261,34.3796],[126.7337,34.3595],[126.7367,34.3443],[126.7413,34.338],[126.7444,34.3305],[126.7474,34.3217],[126.7657,34.3065]]],[[[126.8556,34.3065],[126.8526,34.304],[126.845,34.3015],[126.8373,34.3065],[126.8373,34.3154],[126.8312,34.3204],[126.8236,34.3242],[126.813,34.3217],[126.8023,34.3191],[126.7916,34.3191],[126.787,34.3204],[126.784,34.3217],[126.7627,34.3305],[126.7627,34.3343],[126.7703,34.3355],[126.7809,34.338],[126.784,34.3393],[126.787,34.3406],[126.7977,34.3406],[126.8053,34.338],[126.816,34.3406],[126.8312,34.3494],[126.8419,34.3506],[126.845,34.3481],[126.8526,34.3456],[126.8602,34.3456],[126.8632,34.3481],[126.8739,34.3456],[126.8892,34.3443],[126.8953,34.3393],[126.8953,34.333],[126.8892,34.3254],[126.8892,34.3217],[126.8846,34.3154],[126.8815,34.3103],[126.8709,34.3116],[126.8632,34.3103],[126.8556,34.3065]]],[[[126.345,34.8631],[126.3633,34.8568],[126.3664,34.8355],[126.345,34.8205],[126.3344,34.8243],[126.342,34.8305],[126.345,34.8355],[126.342,34.8393],[126.313,34.8531],[126.3085,34.8543],[126.281,34.8506],[126.2658,34.8443],[126.2521,34.843],[126.2414,34.8455],[126.2338,34.8531],[126.2414,34.8581],[126.2551,34.8593],[126.2765,34.8643],[126.281,34.8681],[126.2841,34.8718],[126.2841,34.8769],[126.2947,34.8794],[126.3024,34.8844],[126.3024,34.8931],[126.2947,34.9019],[126.2917,34.9119],[126.3024,34.9157],[126.3191,34.9119],[126.3374,34.9056],[126.3481,34.8956],[126.3481,34.8881],[126.3374,34.8881],[126.3237,34.8794],[126.3237,34.8743],[126.3237,34.8693],[126.3237,34.8643],[126.3313,34.8631],[126.345,34.8631]]],[[[128.3889,34.8192],[128.3996,34.823],[128.4148,34.8243],[128.4316,34.8255],[128.4392,34.8167],[128.4422,34.8055],[128.4392,34.7967],[128.4422,34.7917],[128.4361,34.7867],[128.4285,34.7904],[128.4255,34.7867],[128.4255,34.7854],[128.4316,34.7842],[128.4392,34.7779],[128.4361,34.7716],[128.4255,34.7616],[128.4102,34.7616],[128.4026,34.7679],[128.3996,34.7766],[128.3889,34.7766],[128.3919,34.7842],[128.3889,34.7904],[128.3752,34.7917],[128.3706,34.7954],[128.3813,34.8005],[128.3813,34.8092],[128.3752,34.8155],[128.3569,34.8205],[128.3416,34.8167],[128.3386,34.8167],[128.3356,34.8243],[128.3416,34.8305],[128.3523,34.8343],[128.3706,34.8293],[128.3813,34.8205],[128.3889,34.8192]]],[[[126.1042,34.5947],[126.1073,34.5922],[126.1073,34.5872],[126.1073,34.5771],[126.1042,34.5671],[126.1042,34.557],[126.0966,34.552],[126.089,34.547],[126.0829,34.5407],[126.0616,34.5306],[126.0494,34.5306],[126.0387,34.5319],[126.0356,34.5369],[126.0433,34.5382],[126.0463,34.5382],[126.0539,34.5432],[126.057,34.547],[126.057,34.5507],[126.0356,34.5532],[126.0387,34.5608],[126.0539,34.562],[126.0677,34.562],[126.0783,34.5696],[126.0859,34.5796],[126.0783,34.5897],[126.0722,34.6022],[126.0646,34.6198],[126.0722,34.6236],[126.0829,34.6161],[126.089,34.6098],[126.1042,34.6047],[126.1042,34.5947]]],[[[126.1789,34.7315],[126.1789,34.7227],[126.1835,34.7114],[126.1759,34.7027],[126.1622,34.7001],[126.1515,34.7114],[126.1439,34.7215],[126.1332,34.7215],[126.1256,34.7177],[126.1225,34.7165],[126.1149,34.7165],[126.1073,34.7215],[126.1073,34.729],[126.0966,34.7428],[126.0783,34.7603],[126.0722,34.7679],[126.0829,34.7666],[126.089,34.7666],[126.0966,34.7679],[126.1073,34.7704],[126.1225,34.7679],[126.1286,34.7654],[126.1362,34.7603],[126.1469,34.7566],[126.1576,34.7553],[126.1682,34.7528],[126.1728,34.7478],[126.1759,34.7428],[126.1759,34.7378],[126.1789,34.7315]]],[[[126.6148,34.2157],[126.6179,34.2107],[126.6224,34.2019],[126.6148,34.1968],[126.6118,34.1854],[126.5965,34.1854],[126.5859,34.1842],[126.5935,34.1766],[126.5859,34.1741],[126.5721,34.1766],[126.5645,34.1842],[126.5615,34.1867],[126.5569,34.1892],[126.5539,34.1892],[126.5539,34.1918],[126.5569,34.2044],[126.5615,34.2094],[126.5615,34.212],[126.5569,34.2145],[126.5615,34.2157],[126.5645,34.217],[126.5645,34.2208],[126.5645,34.222],[126.5615,34.2296],[126.5645,34.2321],[126.5721,34.2309],[126.5782,34.2271],[126.6011,34.2246],[126.6118,34.2195],[126.6148,34.2157]]],[[[126.7657,34.3809],[126.7627,34.3809],[126.755,34.3847],[126.7596,34.391],[126.7657,34.396],[126.7733,34.4098],[126.787,34.4249],[126.8053,34.4338],[126.8267,34.4375],[126.8373,34.435],[126.845,34.43],[126.845,34.4237],[126.8373,34.4187],[126.8419,34.4174],[126.8495,34.4124],[126.8556,34.4048],[126.8632,34.396],[126.8632,34.391],[126.8556,34.3897],[126.8373,34.3947],[126.8267,34.3935],[126.8236,34.3859],[126.7977,34.3758],[126.787,34.3658],[126.784,34.3557],[126.7809,34.3532],[126.7733,34.3595],[126.7733,34.3695],[126.7703,34.3784],[126.7657,34.3809]]],[[[126.0829,34.8205],[126.0753,34.8305],[126.0677,34.8405],[126.0722,34.8493],[126.0859,34.8543],[126.0966,34.8568],[126.1073,34.8506],[126.1149,34.8506],[126.118,34.8581],[126.118,34.8693],[126.1256,34.8769],[126.1393,34.8769],[126.1469,34.8781],[126.1515,34.8743],[126.1545,34.8693],[126.1576,34.8631],[126.1439,34.8568],[126.1469,34.8405],[126.1469,34.8305],[126.1393,34.828],[126.1286,34.828],[126.1225,34.823],[126.1225,34.8105],[126.118,34.8017],[126.1073,34.7967],[126.0997,34.7967],[126.0966,34.8042],[126.0966,34.8067],[126.0829,34.8205]]],[[[124.2189,39.8087],[124.225,39.8122],[124.2219,39.8169],[124.225,39.8169],[124.2296,39.8193],[124.225,39.8204],[124.2296,39.8228],[124.2326,39.8228],[124.2372,39.8204],[124.2402,39.8193],[124.2402,39.8158],[124.2433,39.8146],[124.2433,39.8122],[124.2433,39.8087],[124.2479,39.8087],[124.2479,39.8076],[124.2479,39.804],[124.2433,39.8017],[124.2402,39.8005],[124.2372,39.8005],[124.2326,39.797],[124.2296,39.7935],[124.225,39.7958],[124.2219,39.797],[124.2143,39.797],[124.2143,39.8017],[124.2189,39.8052],[124.2189,39.8087]]],[[[126.0097,34.7779],[126.0097,34.7578],[126.0067,34.7603],[125.996,34.7616],[125.9884,34.7654],[125.9823,34.7553],[125.9671,34.7553],[125.9564,34.7578],[125.9488,34.7553],[125.9488,34.7415],[125.9427,34.729],[125.9351,34.7215],[125.9198,34.7165],[125.9091,34.7177],[125.903,34.724],[125.8954,34.734],[125.8954,34.7478],[125.8985,34.7603],[125.9061,34.7704],[125.9168,34.7754],[125.9274,34.7779],[125.9427,34.7754],[125.9594,34.7779],[125.993,34.7892],[125.9991,34.7892],[126.0036,34.7892],[126.0067,34.7854],[126.0097,34.7779]]],[[[128.0765,34.843],[128.0795,34.8405],[128.0871,34.8343],[128.0765,34.833],[128.0292,34.8405],[128.0033,34.8343],[127.9896,34.8355],[127.9759,34.8443],[127.9682,34.8581],[127.9713,34.8731],[127.9865,34.8881],[127.9972,34.9019],[128.0033,34.9119],[128.0216,34.9157],[128.0262,34.9031],[128.0185,34.8881],[128.014,34.8769],[128.014,34.8681],[128.0216,34.8643],[128.0292,34.8743],[128.0399,34.8906],[128.0475,34.8919],[128.0505,34.8844],[128.0582,34.8819],[128.0612,34.8781],[128.0658,34.8668],[128.0688,34.8493],[128.0765,34.843]]],[[[126.1149,35.0494],[126.1073,35.0494],[126.0829,35.0544],[126.0722,35.0544],[126.0677,35.0557],[126.0677,35.0569],[126.0646,35.0594],[126.0616,35.0607],[126.0677,35.0906],[126.0722,35.1019],[126.0783,35.1044],[126.0936,35.1081],[126.1042,35.1119],[126.1073,35.1181],[126.1149,35.1318],[126.1332,35.1418],[126.1545,35.1456],[126.1682,35.1418],[126.1393,35.1281],[126.1332,35.1194],[126.1286,35.1094],[126.1362,35.0994],[126.1469,35.0807],[126.1362,35.0782],[126.1256,35.0694],[126.118,35.0569],[126.1149,35.0494]]],[[[124.9307,39.6056],[124.9276,39.5998],[124.9124,39.5962],[124.923,39.5739],[124.9383,39.5527],[124.9169,39.5421],[124.888,39.528],[124.8666,39.5103],[124.8484,39.5068],[124.8224,39.4962],[124.8407,39.5233],[124.856,39.5186],[124.8621,39.5304],[124.8484,39.5398],[124.8484,39.5456],[124.8621,39.5456],[124.8621,39.5504],[124.8621,39.5551],[124.859,39.5586],[124.859,39.5762],[124.8727,39.5821],[124.8727,39.5974],[124.888,39.6056],[124.8849,39.615],[124.9017,39.6162],[124.9307,39.6056]]],[[[127.7838,34.6826],[127.7945,34.6801],[127.8067,34.6688],[127.8128,34.6537],[127.8204,34.6299],[127.8204,34.6148],[127.8173,34.5997],[127.8097,34.5859],[127.8021,34.5771],[127.7884,34.5771],[127.7777,34.5821],[127.7411,34.611],[127.7381,34.6236],[127.7442,34.6412],[127.7488,34.6462],[127.7671,34.6587],[127.7701,34.6638],[127.7777,34.6889],[127.7625,34.7027],[127.7671,34.7114],[127.7777,34.7165],[127.7884,34.7165],[127.7991,34.7127],[127.8021,34.7027],[127.7991,34.6926],[127.7838,34.6826]]],[[[127.5354,34.4489],[127.54,34.4388],[127.54,34.4325],[127.5323,34.4249],[127.514,34.4174],[127.4973,34.4124],[127.4927,34.4149],[127.4927,34.4237],[127.4851,34.4287],[127.4744,34.4325],[127.4714,34.4375],[127.4714,34.44],[127.4607,34.4476],[127.4577,34.4501],[127.4607,34.4589],[127.4577,34.464],[127.4577,34.469],[127.4607,34.4715],[127.4683,34.469],[127.4744,34.464],[127.4897,34.4627],[127.4897,34.4589],[127.4973,34.4614],[127.5034,34.4677],[127.514,34.4677],[127.5354,34.4489]]],[[[126.1835,35.0469],[126.1835,35.0419],[126.1865,35.0369],[126.1865,35.0269],[126.1789,35.0257],[126.1759,35.0219],[126.1728,35.0232],[126.1622,35.0319],[126.1576,35.0332],[126.1515,35.0319],[126.1469,35.0319],[126.1469,35.0369],[126.1439,35.0382],[126.1362,35.0382],[126.1362,35.0407],[126.1439,35.0457],[126.1393,35.0457],[126.1362,35.0457],[126.1332,35.0469],[126.1332,35.0507],[126.1393,35.0557],[126.1469,35.0557],[126.1576,35.0519],[126.1682,35.0544],[126.1789,35.0519],[126.1835,35.0469]]],[[[126.6041,34.1665],[126.6118,34.164],[126.6179,34.1551],[126.6179,34.1501],[126.6118,34.1539],[126.6072,34.1539],[126.6072,34.1501],[126.6041,34.1514],[126.5935,34.1551],[126.5859,34.1551],[126.5782,34.1514],[126.5752,34.145],[126.5645,34.14],[126.5539,34.1312],[126.5401,34.1248],[126.5218,34.1248],[126.5112,34.1362],[126.5112,34.1514],[126.5173,34.1665],[126.5356,34.1766],[126.5508,34.1766],[126.5721,34.1665],[126.5782,34.1652],[126.5859,34.169],[126.5965,34.169],[126.6041,34.1665]]],[[[126.6758,34.1514],[126.6804,34.1501],[126.6834,34.145],[126.6804,34.1413],[126.6758,34.1413],[126.6727,34.1349],[126.6727,34.1248],[126.6697,34.116],[126.6575,34.1147],[126.6544,34.1173],[126.6514,34.121],[126.6468,34.1248],[126.6438,34.1261],[126.6407,34.14],[126.6468,34.1615],[126.6468,34.1753],[126.6407,34.1804],[126.6407,34.1854],[126.6468,34.1918],[126.6468,34.1955],[126.6575,34.1955],[126.6727,34.1867],[126.6758,34.1791],[126.6651,34.1716],[126.6651,34.164],[126.6758,34.1514]]],[[[128.299,34.6387],[128.299,34.6349],[128.299,34.6299],[128.2883,34.6198],[128.2853,34.6186],[128.2776,34.6186],[128.27,34.6198],[128.2593,34.6186],[128.2487,34.6123],[128.2456,34.6098],[128.238,34.6073],[128.238,34.6123],[128.2411,34.6186],[128.2411,34.6248],[128.238,34.6286],[128.2304,34.6286],[128.2273,34.6311],[128.2273,34.6361],[128.2304,34.6399],[128.2304,34.6462],[128.2334,34.65],[128.2411,34.65],[128.2731,34.6361],[128.2731,34.6299],[128.2776,34.6299],[128.299,34.6387]]],[[[126.2627,35.5699],[126.2582,35.5724],[126.2551,35.5799],[126.2551,35.5861],[126.2658,35.591],[126.2658,35.5935],[126.2582,35.5948],[126.2627,35.5985],[126.2688,35.5997],[126.2734,35.6047],[126.2765,35.6047],[126.281,35.6059],[126.281,35.6121],[126.2841,35.6121],[126.2947,35.6096],[126.3024,35.6146],[126.3054,35.6183],[126.313,35.6146],[126.313,35.6096],[126.3085,35.601],[126.2917,35.5898],[126.281,35.5774],[126.2688,35.5724],[126.2658,35.5712],[126.2627,35.5699]]],[[[127.3129,34.0187],[127.3159,34.0136],[127.3235,34.0111],[127.3281,34.0085],[127.3281,34.0035],[127.3129,34.0098],[127.2991,34.0111],[127.2946,34.0149],[127.2915,34.0212],[127.2915,34.03],[127.2885,34.0313],[127.2839,34.0351],[127.2809,34.0414],[127.2839,34.0465],[127.2839,34.0515],[127.2839,34.0553],[127.2885,34.0553],[127.2915,34.0553],[127.2946,34.0566],[127.2991,34.0591],[127.3022,34.0553],[127.2991,34.0452],[127.2991,34.0351],[127.3129,34.0187]]],[[[126.6179,37.2559],[126.6179,37.251],[126.6224,37.2425],[126.6179,37.2316],[126.5645,37.2],[126.5432,37.1988],[126.5432,37.2037],[126.5539,37.2158],[126.5539,37.2219],[126.5508,37.2267],[126.5645,37.2389],[126.5645,37.251],[126.5569,37.2656],[126.5508,37.2765],[126.5432,37.2826],[126.5462,37.285],[126.5645,37.279],[126.5752,37.2875],[126.5782,37.2875],[126.5782,37.279],[126.5828,37.2705],[126.5935,37.2656],[126.6118,37.2595],[126.6179,37.2559]]],[[[126.0616,34.9119],[126.0646,34.9257],[126.0753,34.9269],[126.0859,34.9207],[126.0936,34.9106],[126.0966,34.8956],[126.0936,34.8819],[126.0859,34.8693],[126.0722,34.8618],[126.057,34.8581],[126.0494,34.8593],[126.0433,34.8643],[126.0356,34.8681],[126.0036,34.8618],[125.9884,34.8618],[125.9884,34.8681],[125.9991,34.8743],[126.0174,34.8981],[126.0326,34.9081],[126.0387,34.9081],[126.0463,34.9056],[126.057,34.9056],[126.0616,34.9119]]],[[[127.7838,34.5042],[127.7914,34.5017],[127.7945,34.4967],[127.7945,34.4891],[127.7808,34.4866],[127.7731,34.4866],[127.7731,34.4879],[127.7701,34.4916],[127.7594,34.4967],[127.7442,34.4992],[127.7335,34.5067],[127.7305,34.5143],[127.7274,34.5218],[127.7168,34.5256],[127.7091,34.5319],[127.7168,34.5407],[127.7335,34.547],[127.7518,34.5482],[127.7625,34.5419],[127.7808,34.5168],[127.7777,34.5092],[127.7777,34.5067],[127.7838,34.5042]]],[[[126.3588,37.6955],[126.374,37.6883],[126.3816,37.6798],[126.3847,37.6701],[126.374,37.6581],[126.3527,37.6581],[126.2841,37.7003],[126.2947,37.7052],[126.2978,37.7136],[126.3054,37.7317],[126.3085,37.7377],[126.313,37.7426],[126.3161,37.7462],[126.3237,37.7474],[126.3268,37.7462],[126.3313,37.7426],[126.3313,37.739],[126.3344,37.7208],[126.3344,37.7172],[126.342,37.71],[126.345,37.7052],[126.3588,37.6955]]],[[[125.4489,34.6876],[125.4595,34.6889],[125.4641,34.6851],[125.4534,34.6776],[125.4489,34.6738],[125.4458,34.6675],[125.4306,34.6512],[125.4275,34.6449],[125.4199,34.6361],[125.4169,34.6299],[125.4138,34.6261],[125.4016,34.6299],[125.3955,34.6449],[125.3986,34.6587],[125.4016,34.67],[125.4092,34.6801],[125.4169,34.6901],[125.4245,34.6951],[125.4351,34.6976],[125.4382,34.6939],[125.4412,34.6876],[125.4489,34.6876]]],[[[125.0358,37.8366],[125.0465,37.8354],[125.0495,37.8258],[125.0465,37.8186],[125.0419,37.8186],[125.0389,37.8186],[125.0282,37.8089],[125.0206,37.8065],[125.0099,37.8065],[125.0023,37.8089],[125.0023,37.8137],[125.0069,37.8173],[125.0099,37.8198],[125.0175,37.8222],[125.0252,37.8198],[125.0282,37.8186],[125.0313,37.8198],[125.0358,37.8234],[125.0358,37.8258],[125.0313,37.8306],[125.0358,37.8366]]],[[[125.993,34.7114],[126.0036,34.7027],[126.0067,34.6989],[126.0097,34.6901],[126.0067,34.6826],[126.0036,34.6751],[125.9884,34.6587],[125.9823,34.655],[125.9747,34.6537],[125.964,34.655],[125.964,34.6587],[125.9488,34.665],[125.9351,34.67],[125.9274,34.6688],[125.9198,34.6851],[125.9274,34.6939],[125.9564,34.7039],[125.9747,34.724],[125.9823,34.7265],[125.9854,34.724],[125.993,34.7114]]],[[[126.9135,34.1955],[126.9212,34.1892],[126.9273,34.1817],[126.9242,34.1703],[126.9242,34.1652],[126.9166,34.1551],[126.9059,34.1501],[126.8922,34.1501],[126.877,34.1539],[126.8709,34.1602],[126.8632,34.1602],[126.8602,34.1551],[126.8556,34.1564],[126.8526,34.1716],[126.8602,34.1817],[126.8602,34.1918],[126.8632,34.2006],[126.8709,34.2056],[126.8846,34.2107],[126.9029,34.2069],[126.9135,34.1955]]],[[[125.3346,37.7679],[125.3406,37.7691],[125.3163,37.7426],[125.301,37.7293],[125.2721,37.7148],[125.266,37.7088],[125.2507,37.7003],[125.2294,37.6967],[125.2263,37.7039],[125.2553,37.7317],[125.269,37.7377],[125.2797,37.7341],[125.2797,37.7402],[125.2843,37.7486],[125.2873,37.7486],[125.2904,37.751],[125.2949,37.7546],[125.298,37.7558],[125.3056,37.7558],[125.3346,37.7679]]],[[[127.1757,34.4816],[127.2092,34.4841],[127.2229,34.4841],[127.2382,34.4778],[127.2489,34.4627],[127.2443,34.4438],[127.2306,34.4287],[127.2123,34.4224],[127.1726,34.4149],[127.1544,34.4174],[127.1437,34.4224],[127.1223,34.435],[127.1223,34.4438],[127.1254,34.4489],[127.1254,34.4539],[127.1223,34.4577],[127.1147,34.4627],[127.1254,34.4715],[127.1437,34.4765],[127.1757,34.4816]]],[[[126.1042,37.2292],[126.0966,37.2255],[126.0936,37.2255],[126.0936,37.2304],[126.0966,37.2462],[126.0997,37.2595],[126.1073,37.268],[126.1149,37.262],[126.1225,37.2535],[126.1286,37.2486],[126.1545,37.2389],[126.1622,37.2316],[126.1576,37.2255],[126.1469,37.2158],[126.1362,37.2122],[126.1256,37.2122],[126.1149,37.2158],[126.1073,37.2231],[126.1073,37.2292],[126.1042,37.2292]]],[[[124.7219,37.8475],[124.7295,37.8439],[124.7295,37.839],[124.7264,37.8282],[124.7219,37.8186],[124.7188,37.8101],[124.7112,37.8065],[124.7036,37.8065],[124.6975,37.8053],[124.6929,37.8017],[124.6898,37.7993],[124.6898,37.8029],[124.6898,37.8053],[124.6868,37.8101],[124.6792,37.8173],[124.6822,37.8258],[124.6975,37.8354],[124.7081,37.8451],[124.7158,37.8487],[124.7219,37.8475]]],[[[126.0936,34.3053],[126.0936,34.2952],[126.0936,34.2864],[126.089,34.2813],[126.0783,34.2801],[126.0722,34.2763],[126.0677,34.2788],[126.0646,34.2839],[126.0616,34.2839],[126.0616,34.2788],[126.0539,34.2788],[126.0326,34.2851],[126.025,34.2939],[126.025,34.299],[126.028,34.304],[126.028,34.3091],[126.0356,34.3116],[126.0722,34.3065],[126.0859,34.3091],[126.0936,34.3053]]],[[[124.6898,39.5468],[124.6792,39.5398],[124.6639,39.5398],[124.6502,39.5492],[124.6075,39.5398],[124.603,39.5386],[124.5999,39.5398],[124.603,39.5468],[124.6106,39.5504],[124.6182,39.5551],[124.6365,39.5668],[124.6396,39.5657],[124.6533,39.5668],[124.6792,39.5727],[124.6975,39.5704],[124.7036,39.5645],[124.7005,39.5551],[124.6898,39.5468]]],[[[126.2978,37.8029],[126.3191,37.8029],[126.3374,37.8017],[126.345,37.7932],[126.3374,37.7739],[126.3237,37.7631],[126.2978,37.7607],[126.2582,37.7691],[126.2475,37.7655],[126.2368,37.7607],[126.2262,37.7607],[126.2231,37.7715],[126.2262,37.7739],[126.2368,37.8029],[126.2521,37.8113],[126.2658,37.8149],[126.281,37.8113],[126.2978,37.8029]]],[[[124.7371,37.9811],[124.7478,37.9703],[124.7478,37.9558],[124.7325,37.9474],[124.7112,37.957],[124.6868,37.9558],[124.6822,37.9534],[124.6822,37.9414],[124.6929,37.939],[124.7036,37.9366],[124.7112,37.933],[124.6898,37.9197],[124.6502,37.9246],[124.6182,37.945],[124.6289,37.9811],[124.6533,37.9739],[124.7081,37.9895],[124.7371,37.9811]]],[[[126.1728,34.7904],[126.1682,34.7892],[126.1652,34.7817],[126.1682,34.7679],[126.1622,34.7629],[126.1515,34.7603],[126.1393,34.7654],[126.1256,34.7754],[126.1073,34.7804],[126.0966,34.7854],[126.1073,34.7917],[126.1332,34.7954],[126.1469,34.8005],[126.1545,34.8067],[126.1622,34.8017],[126.1682,34.7954],[126.1728,34.7904]]],[[[128.8461,35.0207],[128.8416,34.9994],[128.8355,34.9932],[128.8278,34.9919],[128.8278,34.9944],[128.8202,35.0132],[128.8141,35.0182],[128.8096,35.0232],[128.8141,35.0319],[128.8096,35.0407],[128.8035,35.0469],[128.8065,35.0557],[128.8172,35.0594],[128.8278,35.0607],[128.8385,35.0594],[128.8461,35.0457],[128.8461,35.0207]]],[[[126.4883,37.279],[126.4959,37.2741],[126.5036,37.2608],[126.4959,37.2571],[126.4853,37.2535],[126.4822,37.2474],[126.4822,37.2425],[126.4746,37.234],[126.4609,37.2316],[126.4533,37.2352],[126.4456,37.2352],[126.438,37.2389],[126.438,37.251],[126.438,37.2644],[126.4456,37.2729],[126.4639,37.2814],[126.4883,37.279]]],[[[128.2411,34.8343],[128.2593,34.8205],[128.2624,34.8117],[128.2593,34.8067],[128.2487,34.8067],[128.2456,34.8055],[128.2456,34.7992],[128.2411,34.7954],[128.2304,34.7967],[128.2273,34.8005],[128.2167,34.8055],[128.209,34.8142],[128.209,34.8192],[128.2167,34.8293],[128.2304,34.838],[128.2411,34.8343]]],[[[124.888,38.5299],[124.9063,38.506],[124.9093,38.4965],[124.8666,38.5048],[124.8453,38.5108],[124.827,38.5227],[124.8057,38.5096],[124.7935,38.518],[124.7981,38.5347],[124.8377,38.5538],[124.8484,38.5574],[124.856,38.5466],[124.8697,38.543],[124.8804,38.5371],[124.888,38.5299]]],[[[130.9037,37.5468],[130.922,37.5359],[130.922,37.5105],[130.9113,37.4827],[130.8976,37.4633],[130.8793,37.4548],[130.8534,37.4597],[130.829,37.4718],[130.8138,37.4875],[130.8077,37.5081],[130.8138,37.5226],[130.8321,37.5323],[130.8686,37.5384],[130.893,37.5444],[130.9037,37.5468]]],[[[125.1501,37.786],[125.1471,37.7944],[125.1471,37.7993],[125.1501,37.8029],[125.1715,37.8137],[125.1867,37.8198],[125.1943,37.8198],[125.1974,37.8173],[125.1974,37.8113],[125.1943,37.8101],[125.1898,37.8089],[125.176,37.7981],[125.1608,37.786],[125.1501,37.786]]],[[[125.1318,34.0465],[125.1257,34.049],[125.1075,34.0642],[125.0968,34.0692],[125.0922,34.0768],[125.0998,34.0869],[125.1075,34.0945],[125.1181,34.0907],[125.1257,34.0819],[125.1395,34.0566],[125.1425,34.049],[125.1395,34.0452],[125.1318,34.0452],[125.1318,34.0465]]],[[[124.6929,39.528],[124.6975,39.5374],[124.7081,39.5386],[124.7112,39.5315],[124.7112,39.5221],[124.7081,39.5103],[124.7005,39.5045],[124.6898,39.5045],[124.6868,39.5103],[124.6898,39.5186],[124.6868,39.5233],[124.6929,39.528]]],[[[124.5999,39.4326],[124.5969,39.4408],[124.5969,39.4491],[124.6075,39.4503],[124.6182,39.4597],[124.6182,39.4503],[124.6182,39.4491],[124.6213,39.4456],[124.6258,39.4338],[124.6106,39.4302],[124.6075,39.4291],[124.5999,39.4326]]],[[[126.0433,34.5671],[126.0326,34.5633],[126.025,34.5696],[126.0219,34.6047],[126.025,34.6236],[126.0326,34.6336],[126.0463,34.6098],[126.057,34.596],[126.0646,34.5821],[126.0616,34.5708],[126.0539,34.5696],[126.0433,34.5671]]],[[[126.2521,34.9157],[126.2414,34.9119],[126.2292,34.9119],[126.2231,34.9207],[126.2262,34.9307],[126.2338,34.9344],[126.2521,34.9344],[126.2551,34.9319],[126.2582,34.9269],[126.2551,34.9169],[126.2521,34.9157]]],[[[125.6942,37.6798],[125.7049,37.6786],[125.7125,37.6726],[125.708,37.6617],[125.6973,37.6544],[125.6897,37.6532],[125.6897,37.6581],[125.6836,37.6701],[125.6836,37.6786],[125.6942,37.6798]]],[[[131.8608,37.2438],[131.8654,37.2438],[131.8608,37.2425],[131.8608,37.2438]]]]}}]}